<?xml version="1.0" encoding="UTF-8"?>
<gpx version="1.1" creator="Global Mapper - http://www.globalmapper.com" xmlns:globalmapper="http://www.bluemarblegeo.com/globalmapper" xmlns:xsi="http://www.w3.org/2001/XMLSchema-instance" xmlns="http://www.topografix.com/GPX/1/1" xsi:schemaLocation="http://www.topografix.com/GPX/1/1 http://www.topografix.com/GPX/1/1/gpx.xsd http://www.garmin.com/xmlschemas/GpxExtensions/v3 http://www.garmin.com/xmlschemas/GpxExtensionsv3.xsd http://www.garmin.com/xmlschemas/TrackPointExtension/v1 http://www.garmin.com/xmlschemas/TrackPointExtensionv1.xsd http://www.garmin.com/xmlschemas/PowerExtension/v1 http://www.garmin.com/xmlschemas/PowerExtensionv1.xsd http://www.topografix.com/GPX/gpx_style/0/2 http://www.topografix.com/GPX/gpx_style/0/2/gpx_style.xsd" xmlns:gpxtpx="http://www.garmin.com/xmlschemas/TrackPointExtension/v1" xmlns:gpxx="http://www.garmin.com/xmlschemas/GpxExtensions/v3" xmlns:gpxpx="http://www.garmin.com/xmlschemas/PowerExtension/v1" xmlns:gpx_style="http://www.topografix.com/GPX/gpx_style/0/2">
    
  <wpt lat="-7.66309664" lon="111.18717486">
    <name>BASECAMP CEMORO KANDANG</name>
    <ele>1920</ele>
    <desc>Ini Basecamp Cemoro Kandang</desc>
    <image>lawuCemoroKandangBasecamp</image>
    <checkpointstatus>post</checkpointstatus>
  </wpt>
  <wpt lat="-7.6552874" lon="111.1872545">
    <name>POS 1 TAMAN SARI BAWAH</name>
    <ele>2205</ele>
    <desc>Ini Pos 1 - Taman Sari Bawah</desc>
    <image>lawuCemoroKandangPos1</image>
    <checkpointstatus>post</checkpointstatus>
  </wpt>
  <wpt lat="-7.6499094" lon="111.1885714">
    <name>POS 2 TAMAN SARI ATAS</name>
    <ele>2467</ele>
    <desc>Ini Pos 2 - Taman Sari Atas</desc>
    <image>lawuCemoroKandangPos2</image>
    <checkpointstatus>post</checkpointstatus>
  </wpt>
  <wpt lat="-7.63985303" lon="111.18197967">
    <name>POS BAYANGAN</name>
    <ele>2563</ele>
    <desc>Ini Pos Bayangan</desc>
    <image>lawuCemoroKandangPosBayangan</image>
    <checkpointstatus>post</checkpointstatus>
  </wpt>
  <wpt lat="-7.63520736" lon="111.18444462">
    <name>POS 3 PENGGIK</name>
    <ele>2868</ele>
    <desc>Ini Pos 3 - Penggik</desc>
    <image>lawuCemoroKandangPos3</image>
    <checkpointstatus>post</checkpointstatus>
  </wpt>
  <wpt lat="-7.6317382" lon="111.1865262">
    <name>POS 4 COKRO SURYO</name>
    <ele>3135</ele>
    <desc>Ini Pos 4 - Cokro Suryo</desc>
    <image>lawuCemoroKandangPos4</image>
    <checkpointstatus>post</checkpointstatus>
  </wpt>
  <wpt lat="-7.62733751" lon="111.19436536">
    <name>HARGO DUMILAH</name>
    <ele>3265</ele>
    <desc>Ini summit - Hargo Dumilah</desc>
    <image>HargoDumilah</image>
    <checkpointstatus>summit</checkpointstatus>
  </wpt>
  <trk>
    <name>Cemoro Kandang</name>
    <trkseg>
      <trkpt lat="-7.66333326" lon="111.18678301">
        <ele>1849.233</ele>
      </trkpt>
      <trkpt lat="-7.66333384" lon="111.186782">
        <ele>1852.598</ele>
      </trkpt>
      <trkpt lat="-7.66333569" lon="111.186782">
        <ele>1877.111</ele>
      </trkpt>
      <trkpt lat="-7.66333778" lon="111.18678099">
        <ele>1881.437</ele>
      </trkpt>
      <trkpt lat="-7.66333879" lon="111.18678099">
        <ele>1885.283</ele>
      </trkpt>
      <trkpt lat="-7.66333845" lon="111.186782">
        <ele>1898.741</ele>
      </trkpt>
      <trkpt lat="-7.66333762" lon="111.18678301">
        <ele>1908.354</ele>
      </trkpt>
      <trkpt lat="-7.66333745" lon="111.18678301">
        <ele>1909.796</ele>
      </trkpt>
      <trkpt lat="-7.66333628" lon="111.18680304">
        <ele>1913.161</ele>
      </trkpt>
      <trkpt lat="-7.66333628" lon="111.18682198">
        <ele>1916.526</ele>
      </trkpt>
      <trkpt lat="-7.66333544" lon="111.18682299">
        <ele>1916.526</ele>
      </trkpt>
      <trkpt lat="-7.66331892" lon="111.18684">
        <ele>1919.89</ele>
      </trkpt>
      <trkpt lat="-7.66332546" lon="111.18684202">
        <ele>1923.735</ele>
      </trkpt>
      <trkpt lat="-7.66331205" lon="111.18684696">
        <ele>1926.619</ele>
      </trkpt>
      <trkpt lat="-7.66326897" lon="111.18684897">
        <ele>1927.1</ele>
      </trkpt>
      <trkpt lat="-7.66325598" lon="111.18693799">
        <ele>1926.619</ele>
      </trkpt>
      <trkpt lat="-7.66326671" lon="111.18693598">
        <ele>1926.139</ele>
      </trkpt>
      <trkpt lat="-7.66326662" lon="111.186911">
        <ele>1924.216</ele>
      </trkpt>
      <trkpt lat="-7.66326704" lon="111.18690597">
        <ele>1926.139</ele>
      </trkpt>
      <trkpt lat="-7.66327651" lon="111.18690899">
        <ele>1925.658</ele>
      </trkpt>
      <trkpt lat="-7.66326151" lon="111.18688904">
        <ele>1927.58</ele>
      </trkpt>
      <trkpt lat="-7.66310032" lon="111.18686498">
        <ele>1929.984</ele>
      </trkpt>
      <trkpt lat="-7.66309991" lon="111.18700999">
        <ele>1932.387</ele>
      </trkpt>
      <trkpt lat="-7.66295322" lon="111.18701602">
        <ele>1935.271</ele>
      </trkpt>
      <trkpt lat="-7.66280637" lon="111.18701904">
        <ele>1938.155</ele>
      </trkpt>
      <trkpt lat="-7.66272607" lon="111.18700597">
        <ele>1939.597</ele>
      </trkpt>
      <trkpt lat="-7.66259154" lon="111.18702801">
        <ele>1942.481</ele>
      </trkpt>
      <trkpt lat="-7.66243438" lon="111.18708098">
        <ele>1944.403</ele>
      </trkpt>
      <trkpt lat="-7.66221696" lon="111.18712901">
        <ele>1945.846</ele>
      </trkpt>
      <trkpt lat="-7.66205611" lon="111.18719699">
        <ele>1946.326</ele>
      </trkpt>
      <trkpt lat="-7.66186693" lon="111.18721903">
        <ele>1949.21</ele>
      </trkpt>
      <trkpt lat="-7.66179652" lon="111.18723898">
        <ele>1951.614</ele>
      </trkpt>
      <trkpt lat="-7.6616842" lon="111.18726899">
        <ele>1954.978</ele>
      </trkpt>
      <trkpt lat="-7.66161069" lon="111.18729799">
        <ele>1956.901</ele>
      </trkpt>
      <trkpt lat="-7.66144046" lon="111.18732699">
        <ele>1958.343</ele>
      </trkpt>
      <trkpt lat="-7.66127969" lon="111.18733504">
        <ele>1959.785</ele>
      </trkpt>
      <trkpt lat="-7.66110065" lon="111.18735599">
        <ele>1960.265</ele>
      </trkpt>
      <trkpt lat="-7.66094743" lon="111.18734702">
        <ele>1961.227</ele>
      </trkpt>
      <trkpt lat="-7.66081047" lon="111.18728701">
        <ele>1961.708</ele>
      </trkpt>
      <trkpt lat="-7.66069841" lon="111.18720604">
        <ele>1962.188</ele>
      </trkpt>
      <trkpt lat="-7.66058282" lon="111.18710596">
        <ele>1962.669</ele>
      </trkpt>
      <trkpt lat="-7.66055985" lon="111.18707696">
        <ele>1962.188</ele>
      </trkpt>
      <trkpt lat="-7.6604244" lon="111.18704896">
        <ele>1962.669</ele>
      </trkpt>
      <trkpt lat="-7.6602545" lon="111.18706296">
        <ele>1961.708</ele>
      </trkpt>
      <trkpt lat="-7.6600825" lon="111.18710697">
        <ele>1961.708</ele>
      </trkpt>
      <trkpt lat="-7.65988343" lon="111.18711904">
        <ele>1961.708</ele>
      </trkpt>
      <trkpt lat="-7.65971152" lon="111.18704997">
        <ele>1962.669</ele>
      </trkpt>
      <trkpt lat="-7.65964924" lon="111.18699599">
        <ele>1965.553</ele>
      </trkpt>
      <trkpt lat="-7.65963533" lon="111.18695903">
        <ele>1966.995</ele>
      </trkpt>
      <trkpt lat="-7.65960348" lon="111.18688996">
        <ele>1968.437</ele>
      </trkpt>
      <trkpt lat="-7.65945327" lon="111.18681301">
        <ele>1970.359</ele>
      </trkpt>
      <trkpt lat="-7.65930751" lon="111.18688703">
        <ele>1972.282</ele>
      </trkpt>
      <trkpt lat="-7.65918723" lon="111.18698199">
        <ele>1974.685</ele>
      </trkpt>
      <trkpt lat="-7.65906427" lon="111.18704997">
        <ele>1978.05</ele>
      </trkpt>
      <trkpt lat="-7.65892672" lon="111.18719498">
        <ele>1980.934</ele>
      </trkpt>
      <trkpt lat="-7.65882648" lon="111.18717201">
        <ele>1983.818</ele>
      </trkpt>
      <trkpt lat="-7.65877761" lon="111.18713303">
        <ele>1980.453</ele>
      </trkpt>
      <trkpt lat="-7.65877392" lon="111.18712901">
        <ele>1985.26</ele>
      </trkpt>
      <trkpt lat="-7.65870544" lon="111.18705299">
        <ele>1985.26</ele>
      </trkpt>
      <trkpt lat="-7.65859086" lon="111.18691402">
        <ele>1988.144</ele>
      </trkpt>
      <trkpt lat="-7.6584933" lon="111.18681603">
        <ele>1991.027</ele>
      </trkpt>
      <trkpt lat="-7.65842632" lon="111.186666">
        <ele>1994.873</ele>
      </trkpt>
      <trkpt lat="-7.65843311" lon="111.18670003">
        <ele>1995.834</ele>
      </trkpt>
      <trkpt lat="-7.65844728" lon="111.18679198">
        <ele>1996.796</ele>
      </trkpt>
      <trkpt lat="-7.65840478" lon="111.18687596">
        <ele>1999.68</ele>
      </trkpt>
      <trkpt lat="-7.6584456" lon="111.186954">
        <ele>2000.641</ele>
      </trkpt>
      <trkpt lat="-7.65839715" lon="111.18688099">
        <ele>2003.525</ele>
      </trkpt>
      <trkpt lat="-7.65834326" lon="111.18678099">
        <ele>2004.967</ele>
      </trkpt>
      <trkpt lat="-7.65826388" lon="111.18667496">
        <ele>2007.37</ele>
      </trkpt>
      <trkpt lat="-7.65819968" lon="111.18660296">
        <ele>2009.293</ele>
      </trkpt>
      <trkpt lat="-7.65814804" lon="111.18650397">
        <ele>2012.657</ele>
      </trkpt>
      <trkpt lat="-7.65809096" lon="111.18656298">
        <ele>2016.022</ele>
      </trkpt>
      <trkpt lat="-7.65800321" lon="111.186681">
        <ele>2018.906</ele>
      </trkpt>
      <trkpt lat="-7.65799139" lon="111.18670103">
        <ele>2020.829</ele>
      </trkpt>
      <trkpt lat="-7.65789047" lon="111.186768">
        <ele>2023.232</ele>
      </trkpt>
      <trkpt lat="-7.65778167" lon="111.18689197">
        <ele>2025.635</ele>
      </trkpt>
      <trkpt lat="-7.65775326" lon="111.18696699">
        <ele>2026.116</ele>
      </trkpt>
      <trkpt lat="-7.65753533" lon="111.18705098">
        <ele>2029</ele>
      </trkpt>
      <trkpt lat="-7.65745629" lon="111.18703597">
        <ele>2029</ele>
      </trkpt>
      <trkpt lat="-7.65724624" lon="111.18702801">
        <ele>2033.326</ele>
      </trkpt>
      <trkpt lat="-7.65715714" lon="111.18705198">
        <ele>2033.326</ele>
      </trkpt>
      <trkpt lat="-7.65703375" lon="111.18718701">
        <ele>2034.287</ele>
      </trkpt>
      <trkpt lat="-7.65692856" lon="111.18723898">
        <ele>2035.248</ele>
      </trkpt>
      <trkpt lat="-7.65682932" lon="111.18721199">
        <ele>2038.132</ele>
      </trkpt>
      <trkpt lat="-7.65679982" lon="111.18715298">
        <ele>2038.132</ele>
      </trkpt>
      <trkpt lat="-7.6567688" lon="111.18702902">
        <ele>2041.016</ele>
      </trkpt>
      <trkpt lat="-7.65673083" lon="111.18694302">
        <ele>2042.458</ele>
      </trkpt>
      <trkpt lat="-7.65672036" lon="111.18689801">
        <ele>2045.823</ele>
      </trkpt>
      <trkpt lat="-7.65661977" lon="111.18693799">
        <ele>2045.823</ele>
      </trkpt>
      <trkpt lat="-7.65661986" lon="111.18694402">
        <ele>2047.265</ele>
      </trkpt>
      <trkpt lat="-7.65653914" lon="111.18695098">
        <ele>2048.226</ele>
      </trkpt>
      <trkpt lat="-7.65636848" lon="111.18697504">
        <ele>2050.149</ele>
      </trkpt>
      <trkpt lat="-7.65627444" lon="111.18703798">
        <ele>2051.591</ele>
      </trkpt>
      <trkpt lat="-7.65614946" lon="111.18712298">
        <ele>2054.475</ele>
      </trkpt>
      <trkpt lat="-7.6560861" lon="111.18716799">
        <ele>2054.955</ele>
      </trkpt>
      <trkpt lat="-7.65599038" lon="111.18719799">
        <ele>2058.801</ele>
      </trkpt>
      <trkpt lat="-7.65596246" lon="111.18712096">
        <ele>2061.685</ele>
      </trkpt>
      <trkpt lat="-7.65585702" lon="111.18700798">
        <ele>2063.607</ele>
      </trkpt>
      <trkpt lat="-7.65577697" lon="111.18700697">
        <ele>2064.569</ele>
      </trkpt>
      <trkpt lat="-7.6557069" lon="111.18707">
        <ele>2067.452</ele>
      </trkpt>
      <trkpt lat="-7.65568645" lon="111.18706397">
        <ele>2067.933</ele>
      </trkpt>
      <trkpt lat="-7.65560514" lon="111.18711099">
        <ele>2070.817</ele>
      </trkpt>
      <trkpt lat="-7.65555913" lon="111.18710697">
        <ele>2074.182</ele>
      </trkpt>
      <trkpt lat="-7.65546835" lon="111.18707">
        <ele>2078.027</ele>
      </trkpt>
      <trkpt lat="-7.65545662" lon="111.18707403">
        <ele>2077.546</ele>
      </trkpt>
      <trkpt lat="-7.65542317" lon="111.18713798">
        <ele>2080.911</ele>
      </trkpt>
      <trkpt lat="-7.65537632" lon="111.18708702">
        <ele>2082.353</ele>
      </trkpt>
      <trkpt lat="-7.65537514" lon="111.18704896">
        <ele>2083.314</ele>
      </trkpt>
      <trkpt lat="-7.6553733" lon="111.18704997">
        <ele>2084.756</ele>
      </trkpt>
      <trkpt lat="-7.65537137" lon="111.18705299">
        <ele>2088.602</ele>
      </trkpt>
      <trkpt lat="-7.65535528" lon="111.18708903">
        <ele>2089.563</ele>
      </trkpt>
      <trkpt lat="-7.65525419" lon="111.18723596">
        <ele>2090.043</ele>
      </trkpt>
      <trkpt lat="-7.65529761" lon="111.187213">
        <ele>2091.485</ele>
      </trkpt>
      <trkpt lat="-7.65528479" lon="111.18724904">
        <ele>2091.005</ele>
      </trkpt>
      <trkpt lat="-7.65528353" lon="111.18728198">
        <ele>2092.927</ele>
      </trkpt>
      <trkpt lat="-7.65525704" lon="111.18722197">
        <ele>2092.927</ele>
      </trkpt>
      <trkpt lat="-7.65522712" lon="111.18719799">
        <ele>2096.292</ele>
      </trkpt>
      <trkpt lat="-7.65520751" lon="111.18719498">
        <ele>2099.176</ele>
      </trkpt>
      <trkpt lat="-7.65507985" lon="111.18720797">
        <ele>2101.579</ele>
      </trkpt>
      <trkpt lat="-7.65504171" lon="111.18724703">
        <ele>2103.983</ele>
      </trkpt>
      <trkpt lat="-7.65492403" lon="111.18725097">
        <ele>2107.828</ele>
      </trkpt>
      <trkpt lat="-7.6548076" lon="111.18722297">
        <ele>2110.712</ele>
      </trkpt>
      <trkpt lat="-7.65470945" lon="111.187227">
        <ele>2113.596</ele>
      </trkpt>
      <trkpt lat="-7.65458029" lon="111.18722297">
        <ele>2115.519</ele>
      </trkpt>
      <trkpt lat="-7.65453444" lon="111.18723596">
        <ele>2117.922</ele>
      </trkpt>
      <trkpt lat="-7.65442966" lon="111.18720897">
        <ele>2119.844</ele>
      </trkpt>
      <trkpt lat="-7.654373" lon="111.18721199">
        <ele>2121.767</ele>
      </trkpt>
      <trkpt lat="-7.6543176" lon="111.187227">
        <ele>2122.728</ele>
      </trkpt>
      <trkpt lat="-7.65420419" lon="111.18724401">
        <ele>2124.651</ele>
      </trkpt>
      <trkpt lat="-7.6541337" lon="111.18727502">
        <ele>2126.574</ele>
      </trkpt>
      <trkpt lat="-7.65405223" lon="111.18731601">
        <ele>2128.977</ele>
      </trkpt>
      <trkpt lat="-7.65398702" lon="111.18735398">
        <ele>2129.938</ele>
      </trkpt>
      <trkpt lat="-7.65393874" lon="111.18736999">
        <ele>2133.303</ele>
      </trkpt>
      <trkpt lat="-7.65385265" lon="111.18734996">
        <ele>2133.783</ele>
      </trkpt>
      <trkpt lat="-7.65379775" lon="111.18733797">
        <ele>2137.148</ele>
      </trkpt>
      <trkpt lat="-7.65368829" lon="111.18729397">
        <ele>2138.109</ele>
      </trkpt>
      <trkpt lat="-7.65361763" lon="111.18728399">
        <ele>2141.474</ele>
      </trkpt>
      <trkpt lat="-7.65360774" lon="111.18727603">
        <ele>2140.032</ele>
      </trkpt>
      <trkpt lat="-7.65360581" lon="111.18727301">
        <ele>2142.916</ele>
      </trkpt>
      <trkpt lat="-7.65334647" lon="111.1873">
        <ele>2144.839</ele>
      </trkpt>
      <trkpt lat="-7.65321873" lon="111.18733202">
        <ele>2147.723</ele>
      </trkpt>
      <trkpt lat="-7.65303332" lon="111.18731098">
        <ele>2150.606</ele>
      </trkpt>
      <trkpt lat="-7.65290684" lon="111.18743101">
        <ele>2153.49</ele>
      </trkpt>
      <trkpt lat="-7.65276762" lon="111.187529">
        <ele>2155.894</ele>
      </trkpt>
      <trkpt lat="-7.65257609" lon="111.18761399">
        <ele>2157.817</ele>
      </trkpt>
      <trkpt lat="-7.65247785" lon="111.18756303">
        <ele>2159.739</ele>
      </trkpt>
      <trkpt lat="-7.65240778" lon="111.18759102">
        <ele>2163.104</ele>
      </trkpt>
      <trkpt lat="-7.65231374" lon="111.18756998">
        <ele>2165.988</ele>
      </trkpt>
      <trkpt lat="-7.65220871" lon="111.18748801">
        <ele>2167.91</ele>
      </trkpt>
      <trkpt lat="-7.65207318" lon="111.187558">
        <ele>2167.91</ele>
      </trkpt>
      <trkpt lat="-7.65184108" lon="111.18761399">
        <ele>2169.833</ele>
      </trkpt>
      <trkpt lat="-7.65174804" lon="111.18771801">
        <ele>2169.352</ele>
      </trkpt>
      <trkpt lat="-7.65169515" lon="111.18772304">
        <ele>2171.275</ele>
      </trkpt>
      <trkpt lat="-7.65159264" lon="111.18780199">
        <ele>2172.717</ele>
      </trkpt>
      <trkpt lat="-7.65153288" lon="111.18786503">
        <ele>2175.12</ele>
      </trkpt>
      <trkpt lat="-7.65144311" lon="111.18787299">
        <ele>2178.485</ele>
      </trkpt>
      <trkpt lat="-7.65138008" lon="111.18787701">
        <ele>2179.927</ele>
      </trkpt>
      <trkpt lat="-7.65131411" lon="111.18788003">
        <ele>2181.369</ele>
      </trkpt>
      <trkpt lat="-7.6512194" lon="111.18789897">
        <ele>2184.253</ele>
      </trkpt>
      <trkpt lat="-7.651065" lon="111.18793996">
        <ele>2187.136</ele>
      </trkpt>
      <trkpt lat="-7.65094204" lon="111.187975">
        <ele>2190.501</ele>
      </trkpt>
      <trkpt lat="-7.65089267" lon="111.18804297">
        <ele>2190.982</ele>
      </trkpt>
      <trkpt lat="-7.6508397" lon="111.18824196">
        <ele>2192.424</ele>
      </trkpt>
      <trkpt lat="-7.65077432" lon="111.18827398">
        <ele>2193.866</ele>
      </trkpt>
      <trkpt lat="-7.65059276" lon="111.18828102">
        <ele>2196.269</ele>
      </trkpt>
      <trkpt lat="-7.65044734" lon="111.18836903">
        <ele>2196.269</ele>
      </trkpt>
      <trkpt lat="-7.65026595" lon="111.188465">
        <ele>2196.75</ele>
      </trkpt>
      <trkpt lat="-7.65023268" lon="111.18857699">
        <ele>2198.192</ele>
      </trkpt>
      <trkpt lat="-7.65020435" lon="111.18859501">
        <ele>2198.672</ele>
      </trkpt>
      <trkpt lat="-7.65018121" lon="111.18866701">
        <ele>2200.115</ele>
      </trkpt>
      <trkpt lat="-7.65012782" lon="111.18869098">
        <ele>2201.556</ele>
      </trkpt>
      <trkpt lat="-7.65003939" lon="111.18867598">
        <ele>2204.921</ele>
      </trkpt>
      <trkpt lat="-7.64990905" lon="111.18860599">
        <ele>2206.844</ele>
      </trkpt>
      <trkpt lat="-7.64995717" lon="111.188608">
        <ele>2208.286</ele>
      </trkpt>
      <trkpt lat="-7.64992523" lon="111.18860699">
        <ele>2209.247</ele>
      </trkpt>
      <trkpt lat="-7.64989313" lon="111.188609">
        <ele>2205.882</ele>
      </trkpt>
      <trkpt lat="-7.64984577" lon="111.18861001">
        <ele>2209.247</ele>
      </trkpt>
      <trkpt lat="-7.64983186" lon="111.18861596">
        <ele>2208.766</ele>
      </trkpt>
      <trkpt lat="-7.64987033" lon="111.18862996">
        <ele>2208.766</ele>
      </trkpt>
      <trkpt lat="-7.64974703" lon="111.18858797">
        <ele>2208.286</ele>
      </trkpt>
      <trkpt lat="-7.64978274" lon="111.18855603">
        <ele>2207.805</ele>
      </trkpt>
      <trkpt lat="-7.64986765" lon="111.18859802">
        <ele>2204.921</ele>
      </trkpt>
      <trkpt lat="-7.64975969" lon="111.18857003">
        <ele>2208.286</ele>
      </trkpt>
      <trkpt lat="-7.64973178" lon="111.18856098">
        <ele>2208.766</ele>
      </trkpt>
      <trkpt lat="-7.64969867" lon="111.18855301">
        <ele>2209.247</ele>
      </trkpt>
      <trkpt lat="-7.64958249" lon="111.188522">
        <ele>2210.689</ele>
      </trkpt>
      <trkpt lat="-7.64950077" lon="111.18855301">
        <ele>2214.053</ele>
      </trkpt>
      <trkpt lat="-7.64943263" lon="111.18857497">
        <ele>2215.976</ele>
      </trkpt>
      <trkpt lat="-7.64933397" lon="111.18854597">
        <ele>2218.379</ele>
      </trkpt>
      <trkpt lat="-7.6492784" lon="111.188522">
        <ele>2220.783</ele>
      </trkpt>
      <trkpt lat="-7.64920363" lon="111.18851999">
        <ele>2225.109</ele>
      </trkpt>
      <trkpt lat="-7.64911001" lon="111.18847598">
        <ele>2225.589</ele>
      </trkpt>
      <trkpt lat="-7.649066" lon="111.18848001">
        <ele>2228.473</ele>
      </trkpt>
      <trkpt lat="-7.64895746" lon="111.18845704">
        <ele>2230.396</ele>
      </trkpt>
      <trkpt lat="-7.64887816" lon="111.18849199">
        <ele>2233.76</ele>
      </trkpt>
      <trkpt lat="-7.64883458" lon="111.18838697">
        <ele>2235.202</ele>
      </trkpt>
      <trkpt lat="-7.64878294" lon="111.18835797">
        <ele>2236.164</ele>
      </trkpt>
      <trkpt lat="-7.64868999" lon="111.18835998">
        <ele>2239.048</ele>
      </trkpt>
      <trkpt lat="-7.64862151" lon="111.18830399">
        <ele>2241.932</ele>
      </trkpt>
      <trkpt lat="-7.64855437" lon="111.18828001">
        <ele>2243.374</ele>
      </trkpt>
      <trkpt lat="-7.64851523" lon="111.188264">
        <ele>2243.854</ele>
      </trkpt>
      <trkpt lat="-7.64849662" lon="111.18819997">
        <ele>2246.258</ele>
      </trkpt>
      <trkpt lat="-7.64847298" lon="111.18816996">
        <ele>2247.7</ele>
      </trkpt>
      <trkpt lat="-7.64837114" lon="111.18818597">
        <ele>2250.583</ele>
      </trkpt>
      <trkpt lat="-7.64832068" lon="111.18824598">
        <ele>2253.468</ele>
      </trkpt>
      <trkpt lat="-7.64819453" lon="111.18832">
        <ele>2255.871</ele>
      </trkpt>
      <trkpt lat="-7.64807384" lon="111.188392">
        <ele>2258.274</ele>
      </trkpt>
      <trkpt lat="-7.64792296" lon="111.18838403">
        <ele>2260.677</ele>
      </trkpt>
      <trkpt lat="-7.64783403" lon="111.18838504">
        <ele>2264.042</ele>
      </trkpt>
      <trkpt lat="-7.64778717" lon="111.18839703">
        <ele>2264.523</ele>
      </trkpt>
      <trkpt lat="-7.64776262" lon="111.188379">
        <ele>2265.965</ele>
      </trkpt>
      <trkpt lat="-7.64775859" lon="111.188379">
        <ele>2268.849</ele>
      </trkpt>
      <trkpt lat="-7.64774837" lon="111.18837699">
        <ele>2272.213</ele>
      </trkpt>
      <trkpt lat="-7.64751602" lon="111.18832">
        <ele>2275.097</ele>
      </trkpt>
      <trkpt lat="-7.64751158" lon="111.188264">
        <ele>2277.5</ele>
      </trkpt>
      <trkpt lat="-7.64753161" lon="111.18815596">
        <ele>2280.865</ele>
      </trkpt>
      <trkpt lat="-7.64741669" lon="111.188162">
        <ele>2282.788</ele>
      </trkpt>
      <trkpt lat="-7.6473752" lon="111.18822">
        <ele>2283.268</ele>
      </trkpt>
      <trkpt lat="-7.64727102" lon="111.18817599">
        <ele>2285.191</ele>
      </trkpt>
      <trkpt lat="-7.64721385" lon="111.18820902">
        <ele>2288.075</ele>
      </trkpt>
      <trkpt lat="-7.6471587" lon="111.18819703">
        <ele>2290.959</ele>
      </trkpt>
      <trkpt lat="-7.64709114" lon="111.18813802">
        <ele>2292.882</ele>
      </trkpt>
      <trkpt lat="-7.64700598" lon="111.188148">
        <ele>2296.246</ele>
      </trkpt>
      <trkpt lat="-7.64696072" lon="111.18818304">
        <ele>2296.246</ele>
      </trkpt>
      <trkpt lat="-7.64692434" lon="111.18817599">
        <ele>2299.13</ele>
      </trkpt>
      <trkpt lat="-7.64687405" lon="111.188192">
        <ele>2299.611</ele>
      </trkpt>
      <trkpt lat="-7.64687086" lon="111.18820097">
        <ele>2301.053</ele>
      </trkpt>
      <trkpt lat="-7.6468059" lon="111.18819603">
        <ele>2304.417</ele>
      </trkpt>
      <trkpt lat="-7.64669677" lon="111.18818999">
        <ele>2306.821</ele>
      </trkpt>
      <trkpt lat="-7.64666769" lon="111.18819997">
        <ele>2308.263</ele>
      </trkpt>
      <trkpt lat="-7.64659686" lon="111.18824104">
        <ele>2310.666</ele>
      </trkpt>
      <trkpt lat="-7.64651631" lon="111.18830197">
        <ele>2312.108</ele>
      </trkpt>
      <trkpt lat="-7.64643802" lon="111.18838697">
        <ele>2314.031</ele>
      </trkpt>
      <trkpt lat="-7.6463931" lon="111.18839904">
        <ele>2315.473</ele>
      </trkpt>
      <trkpt lat="-7.64630324" lon="111.18841798">
        <ele>2317.876</ele>
      </trkpt>
      <trkpt lat="-7.64626418" lon="111.18844103">
        <ele>2319.799</ele>
      </trkpt>
      <trkpt lat="-7.64620207" lon="111.18842402">
        <ele>2322.202</ele>
      </trkpt>
      <trkpt lat="-7.64615044" lon="111.18845997">
        <ele>2323.644</ele>
      </trkpt>
      <trkpt lat="-7.64606746" lon="111.18852996">
        <ele>2326.528</ele>
      </trkpt>
      <trkpt lat="-7.64599269" lon="111.18855704">
        <ele>2327.489</ele>
      </trkpt>
      <trkpt lat="-7.64591583" lon="111.18854304">
        <ele>2329.892</ele>
      </trkpt>
      <trkpt lat="-7.64587292" lon="111.18854497">
        <ele>2331.334</ele>
      </trkpt>
      <trkpt lat="-7.64581391" lon="111.18853499">
        <ele>2333.257</ele>
      </trkpt>
      <trkpt lat="-7.64575364" lon="111.18853399">
        <ele>2335.18</ele>
      </trkpt>
      <trkpt lat="-7.64569832" lon="111.18853197">
        <ele>2336.141</ele>
      </trkpt>
      <trkpt lat="-7.64566714" lon="111.18852703">
        <ele>2339.506</ele>
      </trkpt>
      <trkpt lat="-7.64554946" lon="111.18852602">
        <ele>2340.948</ele>
      </trkpt>
      <trkpt lat="-7.6454876" lon="111.18852502">
        <ele>2342.39</ele>
      </trkpt>
      <trkpt lat="-7.64543471" lon="111.18851496">
        <ele>2343.351</ele>
      </trkpt>
      <trkpt lat="-7.64539607" lon="111.188507">
        <ele>2347.196</ele>
      </trkpt>
      <trkpt lat="-7.6452954" lon="111.18846098">
        <ele>2349.6</ele>
      </trkpt>
      <trkpt lat="-7.64526841" lon="111.18846199">
        <ele>2351.042</ele>
      </trkpt>
      <trkpt lat="-7.64526204" lon="111.18846299">
        <ele>2351.522</ele>
      </trkpt>
      <trkpt lat="-7.64524771" lon="111.18845603">
        <ele>2352.003</ele>
      </trkpt>
      <trkpt lat="-7.64524528" lon="111.18845997">
        <ele>2352.483</ele>
      </trkpt>
      <trkpt lat="-7.64524151" lon="111.18846299">
        <ele>2355.848</ele>
      </trkpt>
      <trkpt lat="-7.6452519" lon="111.18826501">
        <ele>2357.29</ele>
      </trkpt>
      <trkpt lat="-7.64522977" lon="111.18820097">
        <ele>2360.655</ele>
      </trkpt>
      <trkpt lat="-7.64515542" lon="111.18819502">
        <ele>2362.577</ele>
      </trkpt>
      <trkpt lat="-7.64508745" lon="111.18818496">
        <ele>2364.981</ele>
      </trkpt>
      <trkpt lat="-7.64504403" lon="111.18817097">
        <ele>2367.384</ele>
      </trkpt>
      <trkpt lat="-7.6450043" lon="111.18816602">
        <ele>2370.749</ele>
      </trkpt>
      <trkpt lat="-7.64491696" lon="111.18815999">
        <ele>2373.632</ele>
      </trkpt>
      <trkpt lat="-7.64486541" lon="111.18816996">
        <ele>2375.074</ele>
      </trkpt>
      <trkpt lat="-7.6448603" lon="111.18824699">
        <ele>2376.997</ele>
      </trkpt>
      <trkpt lat="-7.64480573" lon="111.18827398">
        <ele>2380.362</ele>
      </trkpt>
      <trkpt lat="-7.64472325" lon="111.188263">
        <ele>2381.804</ele>
      </trkpt>
      <trkpt lat="-7.64466207" lon="111.188292">
        <ele>2385.168</ele>
      </trkpt>
      <trkpt lat="-7.64457724" lon="111.18831203">
        <ele>2387.572</ele>
      </trkpt>
      <trkpt lat="-7.64456869" lon="111.18832301">
        <ele>2390.936</ele>
      </trkpt>
      <trkpt lat="-7.64456836" lon="111.18832402">
        <ele>2390.936</ele>
      </trkpt>
      <trkpt lat="-7.64450457" lon="111.18824104">
        <ele>2394.301</ele>
      </trkpt>
      <trkpt lat="-7.64443751" lon="111.18829502">
        <ele>2396.704</ele>
      </trkpt>
      <trkpt lat="-7.64431304" lon="111.18836903">
        <ele>2399.107</ele>
      </trkpt>
      <trkpt lat="-7.6442345" lon="111.188379">
        <ele>2401.991</ele>
      </trkpt>
      <trkpt lat="-7.64420265" lon="111.18834003">
        <ele>2403.433</ele>
      </trkpt>
      <trkpt lat="-7.64415412" lon="111.18830499">
        <ele>2406.798</ele>
      </trkpt>
      <trkpt lat="-7.64414188" lon="111.18828102">
        <ele>2409.682</ele>
      </trkpt>
      <trkpt lat="-7.6441356" lon="111.18827297">
        <ele>2409.682</ele>
      </trkpt>
      <trkpt lat="-7.64413769" lon="111.18818102">
        <ele>2412.085</ele>
      </trkpt>
      <trkpt lat="-7.64407206" lon="111.18819603">
        <ele>2413.047</ele>
      </trkpt>
      <trkpt lat="-7.64396067" lon="111.18823903">
        <ele>2415.45</ele>
      </trkpt>
      <trkpt lat="-7.64385883" lon="111.188307">
        <ele>2418.814</ele>
      </trkpt>
      <trkpt lat="-7.64390954" lon="111.18823802">
        <ele>2419.776</ele>
      </trkpt>
      <trkpt lat="-7.64391381" lon="111.18822503">
        <ele>2420.256</ele>
      </trkpt>
      <trkpt lat="-7.64389462" lon="111.18819301">
        <ele>2423.621</ele>
      </trkpt>
      <trkpt lat="-7.64387417" lon="111.18812202">
        <ele>2426.505</ele>
      </trkpt>
      <trkpt lat="-7.64387174" lon="111.18803199">
        <ele>2428.428</ele>
      </trkpt>
      <trkpt lat="-7.64384625" lon="111.18798698">
        <ele>2429.87</ele>
      </trkpt>
      <trkpt lat="-7.64380116" lon="111.18799997">
        <ele>2432.753</ele>
      </trkpt>
      <trkpt lat="-7.64373746" lon="111.18810198">
        <ele>2434.196</ele>
      </trkpt>
      <trkpt lat="-7.64364576" lon="111.18814398">
        <ele>2436.599</ele>
      </trkpt>
      <trkpt lat="-7.64359689" lon="111.18819301">
        <ele>2439.963</ele>
      </trkpt>
      <trkpt lat="-7.64349438" lon="111.188277">
        <ele>2441.405</ele>
      </trkpt>
      <trkpt lat="-7.64341006" lon="111.18829703">
        <ele>2444.77</ele>
      </trkpt>
      <trkpt lat="-7.64335508" lon="111.18825596">
        <ele>2446.212</ele>
      </trkpt>
      <trkpt lat="-7.64331099" lon="111.18825898">
        <ele>2447.654</ele>
      </trkpt>
      <trkpt lat="-7.64331409" lon="111.18822897">
        <ele>2450.538</ele>
      </trkpt>
      <trkpt lat="-7.64332448" lon="111.18805898">
        <ele>2451.98</ele>
      </trkpt>
      <trkpt lat="-7.64331476" lon="111.18798204">
        <ele>2454.383</ele>
      </trkpt>
      <trkpt lat="-7.64330537" lon="111.18793904">
        <ele>2455.344</ele>
      </trkpt>
      <trkpt lat="-7.64328022" lon="111.18785597">
        <ele>2457.267</ele>
      </trkpt>
      <trkpt lat="-7.64324946" lon="111.18777199">
        <ele>2458.709</ele>
      </trkpt>
      <trkpt lat="-7.64319121" lon="111.18779898">
        <ele>2461.113</ele>
      </trkpt>
      <trkpt lat="-7.64313698" lon="111.18782798">
        <ele>2462.554</ele>
      </trkpt>
      <trkpt lat="-7.64304997" lon="111.18790702">
        <ele>2465.919</ele>
      </trkpt>
      <trkpt lat="-7.64300496" lon="111.18793099">
        <ele>2465.438</ele>
      </trkpt>
      <trkpt lat="-7.64297144" lon="111.18790199">
        <ele>2468.322</ele>
      </trkpt>
      <trkpt lat="-7.64290321" lon="111.18787299">
        <ele>2469.764</ele>
      </trkpt>
      <trkpt lat="-7.64279843" lon="111.18786796">
        <ele>2471.687</ele>
      </trkpt>
      <trkpt lat="-7.6426779" lon="111.18789797">
        <ele>2473.609</ele>
      </trkpt>
      <trkpt lat="-7.64258143" lon="111.18788003">
        <ele>2475.051</ele>
      </trkpt>
      <trkpt lat="-7.64255133" lon="111.18780904">
        <ele>2476.974</ele>
      </trkpt>
      <trkpt lat="-7.64253214" lon="111.18780401">
        <ele>2476.974</ele>
      </trkpt>
      <trkpt lat="-7.64253189" lon="111.18780199">
        <ele>2477.455</ele>
      </trkpt>
      <trkpt lat="-7.64253248" lon="111.187803">
        <ele>2477.936</ele>
      </trkpt>
      <trkpt lat="-7.64253273" lon="111.187803">
        <ele>2481.3</ele>
      </trkpt>
      <trkpt lat="-7.64253055" lon="111.18780199">
        <ele>2477.936</ele>
      </trkpt>
      <trkpt lat="-7.64242779" lon="111.18778297">
        <ele>2481.3</ele>
      </trkpt>
      <trkpt lat="-7.64226585" lon="111.18776796">
        <ele>2483.223</ele>
      </trkpt>
      <trkpt lat="-7.64217398" lon="111.18769697">
        <ele>2486.587</ele>
      </trkpt>
      <trkpt lat="-7.64211631" lon="111.18766101">
        <ele>2488.51</ele>
      </trkpt>
      <trkpt lat="-7.64208941" lon="111.18761198">
        <ele>2489.471</ele>
      </trkpt>
      <trkpt lat="-7.64202185" lon="111.18758398">
        <ele>2493.317</ele>
      </trkpt>
      <trkpt lat="-7.64199235" lon="111.18752497">
        <ele>2493.797</ele>
      </trkpt>
      <trkpt lat="-7.64193401" lon="111.18746303">
        <ele>2497.162</ele>
      </trkpt>
      <trkpt lat="-7.64190308" lon="111.18740603">
        <ele>2499.565</ele>
      </trkpt>
      <trkpt lat="-7.64189914" lon="111.18738298">
        <ele>2500.526</ele>
      </trkpt>
      <trkpt lat="-7.64189553" lon="111.18738298">
        <ele>2503.41</ele>
      </trkpt>
      <trkpt lat="-7.6418952" lon="111.18738298">
        <ele>2503.891</ele>
      </trkpt>
      <trkpt lat="-7.64189277" lon="111.18738198">
        <ele>2504.852</ele>
      </trkpt>
      <trkpt lat="-7.64179395" lon="111.18726103">
        <ele>2507.256</ele>
      </trkpt>
      <trkpt lat="-7.64179059" lon="111.187156">
        <ele>2508.217</ele>
      </trkpt>
      <trkpt lat="-7.64177458" lon="111.18713303">
        <ele>2509.178</ele>
      </trkpt>
      <trkpt lat="-7.6416564" lon="111.18711996">
        <ele>2512.543</ele>
      </trkpt>
      <trkpt lat="-7.64151676" lon="111.187099">
        <ele>2513.024</ele>
      </trkpt>
      <trkpt lat="-7.64141592" lon="111.18705399">
        <ele>2513.985</ele>
      </trkpt>
      <trkpt lat="-7.6412228" lon="111.18707">
        <ele>2514.466</ele>
      </trkpt>
      <trkpt lat="-7.64111258" lon="111.18703698">
        <ele>2514.946</ele>
      </trkpt>
      <trkpt lat="-7.64102834" lon="111.18699297">
        <ele>2515.907</ele>
      </trkpt>
      <trkpt lat="-7.64098392" lon="111.18697998">
        <ele>2517.349</ele>
      </trkpt>
      <trkpt lat="-7.64088744" lon="111.186954">
        <ele>2517.83</ele>
      </trkpt>
      <trkpt lat="-7.64082667" lon="111.18691703">
        <ele>2518.311</ele>
      </trkpt>
      <trkpt lat="-7.64078879" lon="111.18689097">
        <ele>2517.83</ele>
      </trkpt>
      <trkpt lat="-7.6408188" lon="111.18683799">
        <ele>2518.311</ele>
      </trkpt>
      <trkpt lat="-7.64083782" lon="111.18681603">
        <ele>2519.272</ele>
      </trkpt>
      <trkpt lat="-7.64088032" lon="111.18680497">
        <ele>2519.753</ele>
      </trkpt>
      <trkpt lat="-7.64088686" lon="111.18677798">
        <ele>2519.272</ele>
      </trkpt>
      <trkpt lat="-7.64094528" lon="111.18670003">
        <ele>2518.311</ele>
      </trkpt>
      <trkpt lat="-7.64101652" lon="111.18663599">
        <ele>2518.792</ele>
      </trkpt>
      <trkpt lat="-7.64111124" lon="111.18654102">
        <ele>2519.753</ele>
      </trkpt>
      <trkpt lat="-7.64115893" lon="111.18639903">
        <ele>2520.714</ele>
      </trkpt>
      <trkpt lat="-7.64114871" lon="111.18632502">
        <ele>2521.675</ele>
      </trkpt>
      <trkpt lat="-7.64116019" lon="111.18627498">
        <ele>2520.714</ele>
      </trkpt>
      <trkpt lat="-7.64117327" lon="111.18620901">
        <ele>2522.156</ele>
      </trkpt>
      <trkpt lat="-7.64118399" lon="111.18617398">
        <ele>2521.195</ele>
      </trkpt>
      <trkpt lat="-7.64118182" lon="111.18615403">
        <ele>2521.675</ele>
      </trkpt>
      <trkpt lat="-7.64119648" lon="111.18607096">
        <ele>2522.637</ele>
      </trkpt>
      <trkpt lat="-7.64121635" lon="111.18592797">
        <ele>2521.675</ele>
      </trkpt>
      <trkpt lat="-7.64121409" lon="111.18578497">
        <ele>2522.156</ele>
      </trkpt>
      <trkpt lat="-7.64124963" lon="111.18565103">
        <ele>2521.195</ele>
      </trkpt>
      <trkpt lat="-7.64123563" lon="111.18550502">
        <ele>2520.714</ele>
      </trkpt>
      <trkpt lat="-7.64127494" lon="111.18536202">
        <ele>2520.714</ele>
      </trkpt>
      <trkpt lat="-7.64123018" lon="111.185215">
        <ele>2522.156</ele>
      </trkpt>
      <trkpt lat="-7.64127787" lon="111.185056">
        <ele>2523.598</ele>
      </trkpt>
      <trkpt lat="-7.64132146" lon="111.18493102">
        <ele>2524.56</ele>
      </trkpt>
      <trkpt lat="-7.64134677" lon="111.18480203">
        <ele>2526.482</ele>
      </trkpt>
      <trkpt lat="-7.64132883" lon="111.18468703">
        <ele>2527.443</ele>
      </trkpt>
      <trkpt lat="-7.64118869" lon="111.18463003">
        <ele>2528.885</ele>
      </trkpt>
      <trkpt lat="-7.6410177" lon="111.184567">
        <ele>2529.366</ele>
      </trkpt>
      <trkpt lat="-7.64083346" lon="111.18453397">
        <ele>2528.885</ele>
      </trkpt>
      <trkpt lat="-7.64079348" lon="111.18446801">
        <ele>2527.924</ele>
      </trkpt>
      <trkpt lat="-7.64074218" lon="111.18432501">
        <ele>2527.443</ele>
      </trkpt>
      <trkpt lat="-7.64079792" lon="111.18423097">
        <ele>2528.885</ele>
      </trkpt>
      <trkpt lat="-7.64083799" lon="111.18409501">
        <ele>2529.847</ele>
      </trkpt>
      <trkpt lat="-7.64090882" lon="111.18395998">
        <ele>2531.289</ele>
      </trkpt>
      <trkpt lat="-7.64087982" lon="111.18386803">
        <ele>2531.289</ele>
      </trkpt>
      <trkpt lat="-7.64081519" lon="111.18382302">
        <ele>2532.25</ele>
      </trkpt>
      <trkpt lat="-7.64074688" lon="111.18383098">
        <ele>2534.653</ele>
      </trkpt>
      <trkpt lat="-7.64061411" lon="111.18384398">
        <ele>2535.134</ele>
      </trkpt>
      <trkpt lat="-7.64053289" lon="111.18383601">
        <ele>2537.056</ele>
      </trkpt>
      <trkpt lat="-7.64048863" lon="111.18379997">
        <ele>2538.499</ele>
      </trkpt>
      <trkpt lat="-7.64043951" lon="111.18378798">
        <ele>2539.46</ele>
      </trkpt>
      <trkpt lat="-7.64032535" lon="111.18374499">
        <ele>2541.383</ele>
      </trkpt>
      <trkpt lat="-7.64032225" lon="111.18373903">
        <ele>2542.344</ele>
      </trkpt>
      <trkpt lat="-7.64031915" lon="111.18373602">
        <ele>2541.863</ele>
      </trkpt>
      <trkpt lat="-7.64024028" lon="111.183733">
        <ele>2544.747</ele>
      </trkpt>
      <trkpt lat="-7.64017574" lon="111.183719">
        <ele>2548.112</ele>
      </trkpt>
      <trkpt lat="-7.64009426" lon="111.18363803">
        <ele>2547.631</ele>
      </trkpt>
      <trkpt lat="-7.64000223" lon="111.183676">
        <ele>2547.631</ele>
      </trkpt>
      <trkpt lat="-7.63982009" lon="111.18372001">
        <ele>2548.112</ele>
      </trkpt>
      <trkpt lat="-7.63977902" lon="111.18369201">
        <ele>2549.073</ele>
      </trkpt>
      <trkpt lat="-7.63973569" lon="111.18368598">
        <ele>2550.034</ele>
      </trkpt>
      <trkpt lat="-7.63973393" lon="111.18368698">
        <ele>2550.515</ele>
      </trkpt>
      <trkpt lat="-7.6396439" lon="111.18364801">
        <ele>2552.438</ele>
      </trkpt>
      <trkpt lat="-7.63960468" lon="111.18361498">
        <ele>2555.322</ele>
      </trkpt>
      <trkpt lat="-7.63945607" lon="111.18359101">
        <ele>2557.725</ele>
      </trkpt>
      <trkpt lat="-7.63945581" lon="111.18359604">
        <ele>2561.09</ele>
      </trkpt>
      <trkpt lat="-7.63940938" lon="111.18357299">
        <ele>2563.012</ele>
      </trkpt>
      <trkpt lat="-7.6392031" lon="111.18356201">
        <ele>2563.493</ele>
      </trkpt>
      <trkpt lat="-7.63906497" lon="111.18358598">
        <ele>2563.493</ele>
      </trkpt>
      <trkpt lat="-7.63902607" lon="111.18357198">
        <ele>2561.57</ele>
      </trkpt>
      <trkpt lat="-7.63899229" lon="111.18352002">
        <ele>2560.128</ele>
      </trkpt>
      <trkpt lat="-7.6389565" lon="111.18351096">
        <ele>2561.09</ele>
      </trkpt>
      <trkpt lat="-7.63897704" lon="111.18347702">
        <ele>2560.609</ele>
      </trkpt>
      <trkpt lat="-7.63902524" lon="111.18339999">
        <ele>2561.57</ele>
      </trkpt>
      <trkpt lat="-7.63911366" lon="111.18326504">
        <ele>2561.57</ele>
      </trkpt>
      <trkpt lat="-7.63917695" lon="111.18316102">
        <ele>2561.57</ele>
      </trkpt>
      <trkpt lat="-7.63927225" lon="111.18311802">
        <ele>2561.09</ele>
      </trkpt>
      <trkpt lat="-7.6393492" lon="111.18305398">
        <ele>2560.609</ele>
      </trkpt>
      <trkpt lat="-7.63950485" lon="111.18297896">
        <ele>2560.609</ele>
      </trkpt>
      <trkpt lat="-7.63963292" lon="111.18295399">
        <ele>2562.051</ele>
      </trkpt>
      <trkpt lat="-7.63966964" lon="111.18293303">
        <ele>2562.531</ele>
      </trkpt>
      <trkpt lat="-7.63972554" lon="111.18290403">
        <ele>2564.454</ele>
      </trkpt>
      <trkpt lat="-7.63974641" lon="111.18291501">
        <ele>2564.935</ele>
      </trkpt>
      <trkpt lat="-7.63974834" lon="111.18285097">
        <ele>2566.377</ele>
      </trkpt>
      <trkpt lat="-7.63973728" lon="111.18278501">
        <ele>2567.819</ele>
      </trkpt>
      <trkpt lat="-7.63978112" lon="111.18262801">
        <ele>2569.261</ele>
      </trkpt>
      <trkpt lat="-7.63976469" lon="111.18247999">
        <ele>2570.222</ele>
      </trkpt>
      <trkpt lat="-7.63979612" lon="111.18236499">
        <ele>2571.183</ele>
      </trkpt>
      <trkpt lat="-7.63985957" lon="111.18230296">
        <ele>2571.183</ele>
      </trkpt>
      <trkpt lat="-7.63994842" lon="111.18217799">
        <ele>2572.625</ele>
      </trkpt>
      <trkpt lat="-7.64003316" lon="111.18201697">
        <ele>2573.587</ele>
      </trkpt>
      <trkpt lat="-7.64002193" lon="111.18193399">
        <ele>2574.548</ele>
      </trkpt>
      <trkpt lat="-7.64001531" lon="111.18190097">
        <ele>2575.029</ele>
      </trkpt>
      <trkpt lat="-7.6399946" lon="111.181849">
        <ele>2574.548</ele>
      </trkpt>
      <trkpt lat="-7.63988488" lon="111.18172503">
        <ele>2575.509</ele>
      </trkpt>
      <trkpt lat="-7.6397667" lon="111.18170198">
        <ele>2575.99</ele>
      </trkpt>
      <trkpt lat="-7.63956729" lon="111.18172101">
        <ele>2577.913</ele>
      </trkpt>
      <trkpt lat="-7.6394828" lon="111.181691">
        <ele>2579.354</ele>
      </trkpt>
      <trkpt lat="-7.63942187" lon="111.18168002">
        <ele>2581.277</ele>
      </trkpt>
      <trkpt lat="-7.63932816" lon="111.18162998">
        <ele>2583.2</ele>
      </trkpt>
      <trkpt lat="-7.63925121" lon="111.18159603">
        <ele>2584.642</ele>
      </trkpt>
      <trkpt lat="-7.63916153" lon="111.18157801">
        <ele>2585.122</ele>
      </trkpt>
      <trkpt lat="-7.639086" lon="111.18157298">
        <ele>2586.564</ele>
      </trkpt>
      <trkpt lat="-7.6390643" lon="111.181576">
        <ele>2586.564</ele>
      </trkpt>
      <trkpt lat="-7.63904099" lon="111.18158103">
        <ele>2588.487</ele>
      </trkpt>
      <trkpt lat="-7.63890571" lon="111.18164398">
        <ele>2589.929</ele>
      </trkpt>
      <trkpt lat="-7.63882717" lon="111.18159201">
        <ele>2591.371</ele>
      </trkpt>
      <trkpt lat="-7.63865794" lon="111.18151699">
        <ele>2593.294</ele>
      </trkpt>
      <trkpt lat="-7.63854194" lon="111.181432">
        <ele>2595.697</ele>
      </trkpt>
      <trkpt lat="-7.63849449" lon="111.18142404">
        <ele>2595.697</ele>
      </trkpt>
      <trkpt lat="-7.63836348" lon="111.18149">
        <ele>2599.062</ele>
      </trkpt>
      <trkpt lat="-7.63830649" lon="111.18147399">
        <ele>2598.1</ele>
      </trkpt>
      <trkpt lat="-7.63827061" lon="111.18146896">
        <ele>2598.581</ele>
      </trkpt>
      <trkpt lat="-7.63819191" lon="111.18141297">
        <ele>2600.984</ele>
      </trkpt>
      <trkpt lat="-7.63815721" lon="111.18141599">
        <ele>2604.829</ele>
      </trkpt>
      <trkpt lat="-7.63815159" lon="111.181417">
        <ele>2602.907</ele>
      </trkpt>
      <trkpt lat="-7.63814078" lon="111.18142001">
        <ele>2601.465</ele>
      </trkpt>
      <trkpt lat="-7.63797473" lon="111.18145597">
        <ele>2603.387</ele>
      </trkpt>
      <trkpt lat="-7.63795202" lon="111.18146402">
        <ele>2602.907</ele>
      </trkpt>
      <trkpt lat="-7.63793919" lon="111.18146402">
        <ele>2603.387</ele>
      </trkpt>
      <trkpt lat="-7.63790214" lon="111.18147198">
        <ele>2605.791</ele>
      </trkpt>
      <trkpt lat="-7.63778832" lon="111.18151003">
        <ele>2606.752</ele>
      </trkpt>
      <trkpt lat="-7.63763376" lon="111.18158103">
        <ele>2608.675</ele>
      </trkpt>
      <trkpt lat="-7.63758556" lon="111.18163501">
        <ele>2608.675</ele>
      </trkpt>
      <trkpt lat="-7.63755505" lon="111.181677">
        <ele>2612.52</ele>
      </trkpt>
      <trkpt lat="-7.63760165" lon="111.18172">
        <ele>2613.001</ele>
      </trkpt>
      <trkpt lat="-7.63766686" lon="111.18166099">
        <ele>2614.443</ele>
      </trkpt>
      <trkpt lat="-7.63769243" lon="111.18165404">
        <ele>2614.923</ele>
      </trkpt>
      <trkpt lat="-7.63769276" lon="111.18165404">
        <ele>2610.597</ele>
      </trkpt>
      <trkpt lat="-7.63771271" lon="111.18165102">
        <ele>2612.04</ele>
      </trkpt>
      <trkpt lat="-7.63771984" lon="111.18165102">
        <ele>2613.962</ele>
      </trkpt>
      <trkpt lat="-7.63786216" lon="111.18161104">
        <ele>2615.404</ele>
      </trkpt>
      <trkpt lat="-7.637935" lon="111.18161296">
        <ele>2616.846</ele>
      </trkpt>
      <trkpt lat="-7.63806148" lon="111.18162403">
        <ele>2617.327</ele>
      </trkpt>
      <trkpt lat="-7.63813726" lon="111.18166803">
        <ele>2618.288</ele>
      </trkpt>
      <trkpt lat="-7.63820716" lon="111.18175001">
        <ele>2618.769</ele>
      </trkpt>
      <trkpt lat="-7.63829408" lon="111.18184397">
        <ele>2619.73</ele>
      </trkpt>
      <trkpt lat="-7.63830054" lon="111.18184799">
        <ele>2623.095</ele>
      </trkpt>
      <trkpt lat="-7.63830221" lon="111.18185101">
        <ele>2618.769</ele>
      </trkpt>
      <trkpt lat="-7.63831529" lon="111.18184104">
        <ele>2619.73</ele>
      </trkpt>
      <trkpt lat="-7.63840506" lon="111.18185202">
        <ele>2621.653</ele>
      </trkpt>
      <trkpt lat="-7.63852241" lon="111.18183902">
        <ele>2623.095</ele>
      </trkpt>
      <trkpt lat="-7.63860212" lon="111.181892">
        <ele>2624.056</ele>
      </trkpt>
      <trkpt lat="-7.63863414" lon="111.18199199">
        <ele>2625.017</ele>
      </trkpt>
      <trkpt lat="-7.6387203" lon="111.18204497">
        <ele>2625.017</ele>
      </trkpt>
      <trkpt lat="-7.63879431" lon="111.18206802">
        <ele>2626.459</ele>
      </trkpt>
      <trkpt lat="-7.6388949" lon="111.18215997">
        <ele>2627.901</ele>
      </trkpt>
      <trkpt lat="-7.63895147" lon="111.18221303">
        <ele>2628.862</ele>
      </trkpt>
      <trkpt lat="-7.63905625" lon="111.182252">
        <ele>2630.304</ele>
      </trkpt>
      <trkpt lat="-7.63909522" lon="111.18227203">
        <ele>2630.785</ele>
      </trkpt>
      <trkpt lat="-7.63910604" lon="111.18227203">
        <ele>2633.669</ele>
      </trkpt>
      <trkpt lat="-7.63919237" lon="111.182425">
        <ele>2637.034</ele>
      </trkpt>
      <trkpt lat="-7.63908785" lon="111.18239198">
        <ele>2638.476</ele>
      </trkpt>
      <trkpt lat="-7.63903094" lon="111.18241503">
        <ele>2641.359</ele>
      </trkpt>
      <trkpt lat="-7.63904175" lon="111.18251301">
        <ele>2644.244</ele>
      </trkpt>
      <trkpt lat="-7.63898743" lon="111.18256297">
        <ele>2646.167</ele>
      </trkpt>
      <trkpt lat="-7.63893111" lon="111.18254797">
        <ele>2648.57</ele>
      </trkpt>
      <trkpt lat="-7.63881208" lon="111.18253598">
        <ele>2650.973</ele>
      </trkpt>
      <trkpt lat="-7.63882759" lon="111.18258602">
        <ele>2654.337</ele>
      </trkpt>
      <trkpt lat="-7.63882885" lon="111.18261402">
        <ele>2654.818</ele>
      </trkpt>
      <trkpt lat="-7.63877604" lon="111.18267898">
        <ele>2657.221</ele>
      </trkpt>
      <trkpt lat="-7.63873212" lon="111.18270596">
        <ele>2658.183</ele>
      </trkpt>
      <trkpt lat="-7.63870957" lon="111.182683">
        <ele>2659.625</ele>
      </trkpt>
      <trkpt lat="-7.63864746" lon="111.182683">
        <ele>2662.509</ele>
      </trkpt>
      <trkpt lat="-7.63865693" lon="111.18268702">
        <ele>2663.951</ele>
      </trkpt>
      <trkpt lat="-7.63857429" lon="111.18273396">
        <ele>2667.796</ele>
      </trkpt>
      <trkpt lat="-7.63852064" lon="111.18276497">
        <ele>2669.238</ele>
      </trkpt>
      <trkpt lat="-7.63850589" lon="111.182769">
        <ele>2671.16</ele>
      </trkpt>
      <trkpt lat="-7.63845594" lon="111.18281501">
        <ele>2674.525</ele>
      </trkpt>
      <trkpt lat="-7.63838486" lon="111.18279699">
        <ele>2675.005</ele>
      </trkpt>
      <trkpt lat="-7.63835938" lon="111.182855">
        <ele>2678.371</ele>
      </trkpt>
      <trkpt lat="-7.63836273" lon="111.182914">
        <ele>2679.813</ele>
      </trkpt>
      <trkpt lat="-7.63831235" lon="111.18293001">
        <ele>2683.177</ele>
      </trkpt>
      <trkpt lat="-7.63814438" lon="111.18287302">
        <ele>2684.138</ele>
      </trkpt>
      <trkpt lat="-7.63804774" lon="111.18285801">
        <ele>2684.619</ele>
      </trkpt>
      <trkpt lat="-7.63797741" lon="111.18278199">
        <ele>2686.061</ele>
      </trkpt>
      <trkpt lat="-7.63789066" lon="111.182784">
        <ele>2688.464</ele>
      </trkpt>
      <trkpt lat="-7.63783417" lon="111.18268903">
        <ele>2690.868</ele>
      </trkpt>
      <trkpt lat="-7.63774666" lon="111.18263296">
        <ele>2693.271</ele>
      </trkpt>
      <trkpt lat="-7.63765672" lon="111.18258803">
        <ele>2694.232</ele>
      </trkpt>
      <trkpt lat="-7.63750484" lon="111.18258803">
        <ele>2695.193</ele>
      </trkpt>
      <trkpt lat="-7.6375315" lon="111.18263296">
        <ele>2698.558</ele>
      </trkpt>
      <trkpt lat="-7.63763585" lon="111.18271803">
        <ele>2700</ele>
      </trkpt>
      <trkpt lat="-7.63773006" lon="111.18288198">
        <ele>2702.403</ele>
      </trkpt>
      <trkpt lat="-7.63774356" lon="111.18294301">
        <ele>2702.884</ele>
      </trkpt>
      <trkpt lat="-7.63780508" lon="111.18304702">
        <ele>2704.806</ele>
      </trkpt>
      <trkpt lat="-7.63788697" lon="111.18308701">
        <ele>2707.209</ele>
      </trkpt>
      <trkpt lat="-7.63789586" lon="111.18311601">
        <ele>2710.094</ele>
      </trkpt>
      <trkpt lat="-7.63769268" lon="111.183086">
        <ele>2712.497</ele>
      </trkpt>
      <trkpt lat="-7.63758916" lon="111.18302498">
        <ele>2714.42</ele>
      </trkpt>
      <trkpt lat="-7.63748397" lon="111.18299698">
        <ele>2716.823</ele>
      </trkpt>
      <trkpt lat="-7.63741457" lon="111.182913">
        <ele>2717.785</ele>
      </trkpt>
      <trkpt lat="-7.63748246" lon="111.18288903">
        <ele>2720.668</ele>
      </trkpt>
      <trkpt lat="-7.63740619" lon="111.182827">
        <ele>2724.033</ele>
      </trkpt>
      <trkpt lat="-7.63732212" lon="111.18280504">
        <ele>2724.514</ele>
      </trkpt>
      <trkpt lat="-7.63732907" lon="111.18288601">
        <ele>2727.878</ele>
      </trkpt>
      <trkpt lat="-7.63732178" lon="111.18300696">
        <ele>2730.281</ele>
      </trkpt>
      <trkpt lat="-7.63738297" lon="111.18312699">
        <ele>2731.243</ele>
      </trkpt>
      <trkpt lat="-7.63743343" lon="111.18321701">
        <ele>2734.126</ele>
      </trkpt>
      <trkpt lat="-7.63757307" lon="111.18331902">
        <ele>2737.491</ele>
      </trkpt>
      <trkpt lat="-7.63755958" lon="111.18337099">
        <ele>2737.972</ele>
      </trkpt>
      <trkpt lat="-7.63754264" lon="111.18336101">
        <ele>2738.933</ele>
      </trkpt>
      <trkpt lat="-7.63741977" lon="111.18329798">
        <ele>2740.856</ele>
      </trkpt>
      <trkpt lat="-7.63729865" lon="111.183273">
        <ele>2743.259</ele>
      </trkpt>
      <trkpt lat="-7.63729379" lon="111.18327199">
        <ele>2743.74</ele>
      </trkpt>
      <trkpt lat="-7.63719563" lon="111.18322799">
        <ele>2744.221</ele>
      </trkpt>
      <trkpt lat="-7.6371176" lon="111.18317904">
        <ele>2747.585</ele>
      </trkpt>
      <trkpt lat="-7.63702682" lon="111.18308198">
        <ele>2750.95</ele>
      </trkpt>
      <trkpt lat="-7.63697796" lon="111.18303303">
        <ele>2751.911</ele>
      </trkpt>
      <trkpt lat="-7.63697653" lon="111.18303504">
        <ele>2754.795</ele>
      </trkpt>
      <trkpt lat="-7.63694518" lon="111.18318097">
        <ele>2756.237</ele>
      </trkpt>
      <trkpt lat="-7.63698064" lon="111.18333201">
        <ele>2758.64</ele>
      </trkpt>
      <trkpt lat="-7.63706387" lon="111.18345296">
        <ele>2759.602</ele>
      </trkpt>
      <trkpt lat="-7.6371295" lon="111.183532">
        <ele>2762.966</ele>
      </trkpt>
      <trkpt lat="-7.63710989" lon="111.18359503">
        <ele>2765.85</ele>
      </trkpt>
      <trkpt lat="-7.63704476" lon="111.18357299">
        <ele>2767.292</ele>
      </trkpt>
      <trkpt lat="-7.63695851" lon="111.18351096">
        <ele>2768.253</ele>
      </trkpt>
      <trkpt lat="-7.63686396" lon="111.18338004">
        <ele>2771.137</ele>
      </trkpt>
      <trkpt lat="-7.63671661" lon="111.18326898">
        <ele>2774.021</ele>
      </trkpt>
      <trkpt lat="-7.63667143" lon="111.18324199">
        <ele>2775.464</ele>
      </trkpt>
      <trkpt lat="-7.63666531" lon="111.18334902">
        <ele>2777.386</ele>
      </trkpt>
      <trkpt lat="-7.63669649" lon="111.18345598">
        <ele>2779.79</ele>
      </trkpt>
      <trkpt lat="-7.63674477" lon="111.18352496">
        <ele>2781.231</ele>
      </trkpt>
      <trkpt lat="-7.63675248" lon="111.18355698">
        <ele>2782.673</ele>
      </trkpt>
      <trkpt lat="-7.63675206" lon="111.18358498">
        <ele>2781.712</ele>
      </trkpt>
      <trkpt lat="-7.63679129" lon="111.18367399">
        <ele>2784.596</ele>
      </trkpt>
      <trkpt lat="-7.6367607" lon="111.18379503">
        <ele>2786.038</ele>
      </trkpt>
      <trkpt lat="-7.63668283" lon="111.18364801">
        <ele>2789.402</ele>
      </trkpt>
      <trkpt lat="-7.63665936" lon="111.18363099">
        <ele>2789.402</ele>
      </trkpt>
      <trkpt lat="-7.6365716" lon="111.18353602">
        <ele>2789.883</ele>
      </trkpt>
      <trkpt lat="-7.63650329" lon="111.18348196">
        <ele>2790.364</ele>
      </trkpt>
      <trkpt lat="-7.63645467" lon="111.18340099">
        <ele>2792.287</ele>
      </trkpt>
      <trkpt lat="-7.63641511" lon="111.183374">
        <ele>2792.767</ele>
      </trkpt>
      <trkpt lat="-7.63637194" lon="111.18344399">
        <ele>2793.729</ele>
      </trkpt>
      <trkpt lat="-7.63640002" lon="111.18354701">
        <ele>2795.651</ele>
      </trkpt>
      <trkpt lat="-7.63643699" lon="111.18363904">
        <ele>2797.093</ele>
      </trkpt>
      <trkpt lat="-7.636482" lon="111.18369704">
        <ele>2797.574</ele>
      </trkpt>
      <trkpt lat="-7.63652558" lon="111.18379">
        <ele>2799.496</ele>
      </trkpt>
      <trkpt lat="-7.63649097" lon="111.18382">
        <ele>2800.938</ele>
      </trkpt>
      <trkpt lat="-7.636424" lon="111.18374096">
        <ele>2802.38</ele>
      </trkpt>
      <trkpt lat="-7.63636616" lon="111.18371297">
        <ele>2804.303</ele>
      </trkpt>
      <trkpt lat="-7.63631646" lon="111.18363502">
        <ele>2805.265</ele>
      </trkpt>
      <trkpt lat="-7.63622769" lon="111.18356704">
        <ele>2806.707</ele>
      </trkpt>
      <trkpt lat="-7.6362256" lon="111.18359101">
        <ele>2810.071</ele>
      </trkpt>
      <trkpt lat="-7.63624119" lon="111.18373099">
        <ele>2811.513</ele>
      </trkpt>
      <trkpt lat="-7.63626675" lon="111.18384096">
        <ele>2812.474</ele>
      </trkpt>
      <trkpt lat="-7.63625409" lon="111.18396803">
        <ele>2813.917</ele>
      </trkpt>
      <trkpt lat="-7.63619869" lon="111.18392402">
        <ele>2816.8</ele>
      </trkpt>
      <trkpt lat="-7.63616835" lon="111.18384498">
        <ele>2818.242</ele>
      </trkpt>
      <trkpt lat="-7.63610641" lon="111.18373199">
        <ele>2819.684</ele>
      </trkpt>
      <trkpt lat="-7.63607061" lon="111.18371104">
        <ele>2819.684</ele>
      </trkpt>
      <trkpt lat="-7.63607388" lon="111.18379603">
        <ele>2823.049</ele>
      </trkpt>
      <trkpt lat="-7.63604673" lon="111.18391003">
        <ele>2823.529</ele>
      </trkpt>
      <trkpt lat="-7.63608201" lon="111.18398001">
        <ele>2825.452</ele>
      </trkpt>
      <trkpt lat="-7.6360888" lon="111.18402896">
        <ele>2826.413</ele>
      </trkpt>
      <trkpt lat="-7.63601957" lon="111.184122">
        <ele>2828.816</ele>
      </trkpt>
      <trkpt lat="-7.63600046" lon="111.18396702">
        <ele>2830.739</ele>
      </trkpt>
      <trkpt lat="-7.63599384" lon="111.18391396">
        <ele>2830.739</ele>
      </trkpt>
      <trkpt lat="-7.63593131" lon="111.18384699">
        <ele>2832.662</ele>
      </trkpt>
      <trkpt lat="-7.63585369" lon="111.18384498">
        <ele>2833.623</ele>
      </trkpt>
      <trkpt lat="-7.63587004" lon="111.18388698">
        <ele>2836.507</ele>
      </trkpt>
      <trkpt lat="-7.63589401" lon="111.18394297">
        <ele>2836.507</ele>
      </trkpt>
      <trkpt lat="-7.63588035" lon="111.18396602">
        <ele>2836.988</ele>
      </trkpt>
      <trkpt lat="-7.63586165" lon="111.18408998">
        <ele>2838.911</ele>
      </trkpt>
      <trkpt lat="-7.63580281" lon="111.184136">
        <ele>2841.314</ele>
      </trkpt>
      <trkpt lat="-7.6357894" lon="111.184035">
        <ele>2844.198</ele>
      </trkpt>
      <trkpt lat="-7.63572763" lon="111.18396903">
        <ele>2844.679</ele>
      </trkpt>
      <trkpt lat="-7.63564909" lon="111.18396702">
        <ele>2845.159</ele>
      </trkpt>
      <trkpt lat="-7.63559268" lon="111.18397096">
        <ele>2845.64</ele>
      </trkpt>
      <trkpt lat="-7.63552696" lon="111.18403098">
        <ele>2848.043</ele>
      </trkpt>
      <trkpt lat="-7.63549511" lon="111.18403701">
        <ele>2847.082</ele>
      </trkpt>
      <trkpt lat="-7.6354988" lon="111.18403902">
        <ele>2848.524</ele>
      </trkpt>
      <trkpt lat="-7.63551389" lon="111.18403802">
        <ele>2847.082</ele>
      </trkpt>
      <trkpt lat="-7.63551272" lon="111.18403299">
        <ele>2849.004</ele>
      </trkpt>
      <trkpt lat="-7.63550676" lon="111.18403802">
        <ele>2852.369</ele>
      </trkpt>
      <trkpt lat="-7.6356573" lon="111.18412301">
        <ele>2854.292</ele>
      </trkpt>
      <trkpt lat="-7.63565697" lon="111.18415897">
        <ele>2850.446</ele>
      </trkpt>
      <trkpt lat="-7.63566929" lon="111.18421203">
        <ele>2856.214</ele>
      </trkpt>
      <trkpt lat="-7.63566443" lon="111.18424304">
        <ele>2854.292</ele>
      </trkpt>
      <trkpt lat="-7.63566191" lon="111.184251">
        <ele>2856.214</ele>
      </trkpt>
      <trkpt lat="-7.63562319" lon="111.18435804">
        <ele>2857.656</ele>
      </trkpt>
      <trkpt lat="-7.63558731" lon="111.18441202">
        <ele>2859.579</ele>
      </trkpt>
      <trkpt lat="-7.63558446" lon="111.18434002">
        <ele>2861.982</ele>
      </trkpt>
      <trkpt lat="-7.63554733" lon="111.18429601">
        <ele>2864.385</ele>
      </trkpt>
      <trkpt lat="-7.63554532" lon="111.18429501">
        <ele>2861.982</ele>
      </trkpt>
      <trkpt lat="-7.63548438" lon="111.18426098">
        <ele>2865.347</ele>
      </trkpt>
      <trkpt lat="-7.63545538" lon="111.18428797">
        <ele>2865.827</ele>
      </trkpt>
      <trkpt lat="-7.63547156" lon="111.18434203">
        <ele>2866.789</ele>
      </trkpt>
      <trkpt lat="-7.63548832" lon="111.18442099">
        <ele>2868.231</ele>
      </trkpt>
      <trkpt lat="-7.63548346" lon="111.18449701">
        <ele>2869.673</ele>
      </trkpt>
      <trkpt lat="-7.6354118" lon="111.18439299">
        <ele>2871.596</ele>
      </trkpt>
      <trkpt lat="-7.63539101" lon="111.18441797">
        <ele>2873.999</ele>
      </trkpt>
      <trkpt lat="-7.63540258" lon="111.18451897">
        <ele>2875.921</ele>
      </trkpt>
      <trkpt lat="-7.63542496" lon="111.184553">
        <ele>2876.402</ele>
      </trkpt>
      <trkpt lat="-7.63541138" lon="111.18450296">
        <ele>2875.441</ele>
      </trkpt>
      <trkpt lat="-7.63535019" lon="111.18447497">
        <ele>2877.363</ele>
      </trkpt>
      <trkpt lat="-7.6353118" lon="111.18446399">
        <ele>2878.325</ele>
      </trkpt>
      <trkpt lat="-7.63525137" lon="111.184524">
        <ele>2880.247</ele>
      </trkpt>
      <trkpt lat="-7.63527459" lon="111.18444202">
        <ele>2879.767</ele>
      </trkpt>
      <trkpt lat="-7.6352569" lon="111.18448804">
        <ele>2880.247</ele>
      </trkpt>
      <trkpt lat="-7.63522136" lon="111.18453196">
        <ele>2880.728</ele>
      </trkpt>
      <trkpt lat="-7.63529001" lon="111.18447304">
        <ele>2879.767</ele>
      </trkpt>
      <trkpt lat="-7.63531608" lon="111.18448301">
        <ele>2880.247</ele>
      </trkpt>
      <trkpt lat="-7.63534617" lon="111.18435896">
        <ele>2879.767</ele>
      </trkpt>
      <trkpt lat="-7.63520133" lon="111.18451302">
        <ele>2880.728</ele>
      </trkpt>
      <trkpt lat="-7.63527014" lon="111.18453699">
        <ele>2880.247</ele>
      </trkpt>
      <trkpt lat="-7.63524575" lon="111.18449902">
        <ele>2880.728</ele>
      </trkpt>
      <trkpt lat="-7.63526" lon="111.18449399">
        <ele>2880.728</ele>
      </trkpt>
      <trkpt lat="-7.63526067" lon="111.18453498">
        <ele>2880.728</ele>
      </trkpt>
      <trkpt lat="-7.63525397" lon="111.18458502">
        <ele>2880.728</ele>
      </trkpt>
      <trkpt lat="-7.63522991" lon="111.18459097">
        <ele>2880.728</ele>
      </trkpt>
      <trkpt lat="-7.63520602" lon="111.18463104">
        <ele>2880.728</ele>
      </trkpt>
      <trkpt lat="-7.63520988" lon="111.18462299">
        <ele>2880.728</ele>
      </trkpt>
      <trkpt lat="-7.63523125" lon="111.184567">
        <ele>2880.728</ele>
      </trkpt>
      <trkpt lat="-7.63529462" lon="111.18446801">
        <ele>2880.728</ele>
      </trkpt>
      <trkpt lat="-7.6352978" lon="111.184481">
        <ele>2880.247</ele>
      </trkpt>
      <trkpt lat="-7.63531976" lon="111.18444404">
        <ele>2880.247</ele>
      </trkpt>
      <trkpt lat="-7.6352802" lon="111.18450397">
        <ele>2879.767</ele>
      </trkpt>
      <trkpt lat="-7.63521566" lon="111.18455904">
        <ele>2880.247</ele>
      </trkpt>
      <trkpt lat="-7.63519437" lon="111.18453699">
        <ele>2880.247</ele>
      </trkpt>
      <trkpt lat="-7.63505397" lon="111.18461402">
        <ele>2880.247</ele>
      </trkpt>
      <trkpt lat="-7.63512447" lon="111.18455401">
        <ele>2878.805</ele>
      </trkpt>
      <trkpt lat="-7.63526109" lon="111.18449902">
        <ele>2878.805</ele>
      </trkpt>
      <trkpt lat="-7.63528498" lon="111.18444202">
        <ele>2879.286</ele>
      </trkpt>
      <trkpt lat="-7.63526796" lon="111.18442803">
        <ele>2879.767</ele>
      </trkpt>
      <trkpt lat="-7.63522496" lon="111.18447798">
        <ele>2878.325</ele>
      </trkpt>
      <trkpt lat="-7.63524265" lon="111.18445099">
        <ele>2878.805</ele>
      </trkpt>
      <trkpt lat="-7.63522672" lon="111.18452601">
        <ele>2877.363</ele>
      </trkpt>
      <trkpt lat="-7.6352403" lon="111.18450698">
        <ele>2880.728</ele>
      </trkpt>
      <trkpt lat="-7.63528079" lon="111.18447999">
        <ele>2879.286</ele>
      </trkpt>
      <trkpt lat="-7.6353025" lon="111.18451302">
        <ele>2878.805</ele>
      </trkpt>
      <trkpt lat="-7.63528498" lon="111.18444798">
        <ele>2879.286</ele>
      </trkpt>
      <trkpt lat="-7.63523108" lon="111.18452802">
        <ele>2878.805</ele>
      </trkpt>
      <trkpt lat="-7.63510343" lon="111.18452601">
        <ele>2878.805</ele>
      </trkpt>
      <trkpt lat="-7.63518607" lon="111.18456096">
        <ele>2878.805</ele>
      </trkpt>
      <trkpt lat="-7.63521432" lon="111.18448704">
        <ele>2878.325</ele>
      </trkpt>
      <trkpt lat="-7.63522664" lon="111.18442099">
        <ele>2878.805</ele>
      </trkpt>
      <trkpt lat="-7.63520015" lon="111.184509">
        <ele>2878.805</ele>
      </trkpt>
      <trkpt lat="-7.63523762" lon="111.18450397">
        <ele>2877.844</ele>
      </trkpt>
      <trkpt lat="-7.63514659" lon="111.18444596">
        <ele>2878.805</ele>
      </trkpt>
      <trkpt lat="-7.63530962" lon="111.18439601">
        <ele>2878.805</ele>
      </trkpt>
      <trkpt lat="-7.63532245" lon="111.18437598">
        <ele>2878.325</ele>
      </trkpt>
      <trkpt lat="-7.63533443" lon="111.18443297">
        <ele>2879.286</ele>
      </trkpt>
      <trkpt lat="-7.63530409" lon="111.18437204">
        <ele>2879.286</ele>
      </trkpt>
      <trkpt lat="-7.63529252" lon="111.18446197">
        <ele>2879.286</ele>
      </trkpt>
      <trkpt lat="-7.63535975" lon="111.18442501">
        <ele>2878.805</ele>
      </trkpt>
      <trkpt lat="-7.63538565" lon="111.184423">
        <ele>2878.805</ele>
      </trkpt>
      <trkpt lat="-7.6352994" lon="111.18444798">
        <ele>2878.325</ele>
      </trkpt>
      <trkpt lat="-7.63527995" lon="111.18451604">
        <ele>2878.325</ele>
      </trkpt>
      <trkpt lat="-7.63525195" lon="111.18459298">
        <ele>2878.805</ele>
      </trkpt>
      <trkpt lat="-7.63530954" lon="111.18447597">
        <ele>2879.286</ele>
      </trkpt>
      <trkpt lat="-7.63532169" lon="111.18448201">
        <ele>2879.286</ele>
      </trkpt>
      <trkpt lat="-7.63531951" lon="111.18447899">
        <ele>2879.286</ele>
      </trkpt>
      <trkpt lat="-7.63529655" lon="111.18450003">
        <ele>2879.286</ele>
      </trkpt>
      <trkpt lat="-7.63531482" lon="111.18447798">
        <ele>2878.325</ele>
      </trkpt>
      <trkpt lat="-7.63529621" lon="111.184308">
        <ele>2848.524</ele>
      </trkpt>
      <trkpt lat="-7.63526361" lon="111.184409">
        <ele>2852.369</ele>
      </trkpt>
      <trkpt lat="-7.63526344" lon="111.184409">
        <ele>2855.253</ele>
      </trkpt>
      <trkpt lat="-7.63526352" lon="111.18440799">
        <ele>2861.982</ele>
      </trkpt>
      <trkpt lat="-7.63526352" lon="111.184409">
        <ele>2867.269</ele>
      </trkpt>
      <trkpt lat="-7.63526344" lon="111.184409">
        <ele>2867.75</ele>
      </trkpt>
      <trkpt lat="-7.63526293" lon="111.18441001">
        <ele>2876.883</ele>
      </trkpt>
      <trkpt lat="-7.6352621" lon="111.18441101">
        <ele>2883.131</ele>
      </trkpt>
      <trkpt lat="-7.63526017" lon="111.18441302">
        <ele>2886.015</ele>
      </trkpt>
      <trkpt lat="-7.63525899" lon="111.18441503">
        <ele>2884.573</ele>
      </trkpt>
      <trkpt lat="-7.63525832" lon="111.18441604">
        <ele>2886.015</ele>
      </trkpt>
      <trkpt lat="-7.63525832" lon="111.18441797">
        <ele>2885.054</ele>
      </trkpt>
      <trkpt lat="-7.6352533" lon="111.18445803">
        <ele>2884.092</ele>
      </trkpt>
      <trkpt lat="-7.63525388" lon="111.18445401">
        <ele>2885.535</ele>
      </trkpt>
      <trkpt lat="-7.63525397" lon="111.184453">
        <ele>2885.535</ele>
      </trkpt>
      <trkpt lat="-7.63525556" lon="111.184452">
        <ele>2884.573</ele>
      </trkpt>
      <trkpt lat="-7.63526444" lon="111.18444898">
        <ele>2886.015</ele>
      </trkpt>
      <trkpt lat="-7.63526788" lon="111.18443398">
        <ele>2881.689</ele>
      </trkpt>
      <trkpt lat="-7.63526813" lon="111.18443297">
        <ele>2886.496</ele>
      </trkpt>
      <trkpt lat="-7.6352683" lon="111.18440598">
        <ele>2885.054</ele>
      </trkpt>
      <trkpt lat="-7.6352652" lon="111.18440297">
        <ele>2886.015</ele>
      </trkpt>
      <trkpt lat="-7.63527811" lon="111.18439098">
        <ele>2884.573</ele>
      </trkpt>
      <trkpt lat="-7.63528431" lon="111.18438997">
        <ele>2886.496</ele>
      </trkpt>
      <trkpt lat="-7.63528766" lon="111.18437598">
        <ele>2885.054</ele>
      </trkpt>
      <trkpt lat="-7.63528624" lon="111.18437698">
        <ele>2885.535</ele>
      </trkpt>
      <trkpt lat="-7.6352854" lon="111.18437799">
        <ele>2886.977</ele>
      </trkpt>
      <trkpt lat="-7.63528381" lon="111.18437799">
        <ele>2887.938</ele>
      </trkpt>
      <trkpt lat="-7.63528313" lon="111.18437799">
        <ele>2886.496</ele>
      </trkpt>
      <trkpt lat="-7.63528054" lon="111.18438302">
        <ele>2889.86</ele>
      </trkpt>
      <trkpt lat="-7.63528037" lon="111.18438302">
        <ele>2886.977</ele>
      </trkpt>
      <trkpt lat="-7.63528087" lon="111.18438402">
        <ele>2888.899</ele>
      </trkpt>
      <trkpt lat="-7.63528012" lon="111.18438503">
        <ele>2890.822</ele>
      </trkpt>
      <trkpt lat="-7.63528003" lon="111.18438603">
        <ele>2887.457</ele>
      </trkpt>
      <trkpt lat="-7.63528003" lon="111.18438704">
        <ele>2889.379</ele>
      </trkpt>
      <trkpt lat="-7.63527953" lon="111.18439098">
        <ele>2889.379</ele>
      </trkpt>
      <trkpt lat="-7.6352802" lon="111.18440003">
        <ele>2889.86</ele>
      </trkpt>
      <trkpt lat="-7.63527987" lon="111.18440104">
        <ele>2892.744</ele>
      </trkpt>
      <trkpt lat="-7.63527945" lon="111.18440196">
        <ele>2892.264</ele>
      </trkpt>
      <trkpt lat="-7.63527383" lon="111.18442099">
        <ele>2892.264</ele>
      </trkpt>
      <trkpt lat="-7.63520225" lon="111.18453003">
        <ele>2892.264</ele>
      </trkpt>
      <trkpt lat="-7.63509722" lon="111.18461897">
        <ele>2895.628</ele>
      </trkpt>
      <trkpt lat="-7.63504182" lon="111.18455904">
        <ele>2895.628</ele>
      </trkpt>
      <trkpt lat="-7.63503939" lon="111.18455401">
        <ele>2896.109</ele>
      </trkpt>
      <trkpt lat="-7.63491098" lon="111.18450397">
        <ele>2898.031</ele>
      </trkpt>
      <trkpt lat="-7.63483102" lon="111.18447899">
        <ele>2899.954</ele>
      </trkpt>
      <trkpt lat="-7.63475348" lon="111.18443004">
        <ele>2901.396</ele>
      </trkpt>
      <trkpt lat="-7.63461803" lon="111.18439098">
        <ele>2902.358</ele>
      </trkpt>
      <trkpt lat="-7.63457478" lon="111.18436097">
        <ele>2903.319</ele>
      </trkpt>
      <trkpt lat="-7.63449121" lon="111.18434203">
        <ele>2906.684</ele>
      </trkpt>
      <trkpt lat="-7.63448778" lon="111.18421999">
        <ele>2905.722</ele>
      </trkpt>
      <trkpt lat="-7.63441326" lon="111.18410801">
        <ele>2906.684</ele>
      </trkpt>
      <trkpt lat="-7.63425803" lon="111.184063">
        <ele>2908.606</ele>
      </trkpt>
      <trkpt lat="-7.63426649" lon="111.18397096">
        <ele>2910.529</ele>
      </trkpt>
      <trkpt lat="-7.63420648" lon="111.18379796">
        <ele>2911.49</ele>
      </trkpt>
      <trkpt lat="-7.63411168" lon="111.18367097">
        <ele>2912.451</ele>
      </trkpt>
      <trkpt lat="-7.6340111" lon="111.18370802">
        <ele>2913.413</ele>
      </trkpt>
      <trkpt lat="-7.63391135" lon="111.18363502">
        <ele>2914.374</ele>
      </trkpt>
      <trkpt lat="-7.63381429" lon="111.18361398">
        <ele>2918.219</ele>
      </trkpt>
      <trkpt lat="-7.63368169" lon="111.183489">
        <ele>2917.739</ele>
      </trkpt>
      <trkpt lat="-7.63364883" lon="111.18342999">
        <ele>2919.181</ele>
      </trkpt>
      <trkpt lat="-7.63362" lon="111.18339999">
        <ele>2919.181</ele>
      </trkpt>
      <trkpt lat="-7.63356317" lon="111.18338599">
        <ele>2922.064</ele>
      </trkpt>
      <trkpt lat="-7.63355789" lon="111.18338398">
        <ele>2922.064</ele>
      </trkpt>
      <trkpt lat="-7.63345244" lon="111.18333">
        <ele>2922.064</ele>
      </trkpt>
      <trkpt lat="-7.63336225" lon="111.18328004">
        <ele>2923.987</ele>
      </trkpt>
      <trkpt lat="-7.63325069" lon="111.18325003">
        <ele>2923.987</ele>
      </trkpt>
      <trkpt lat="-7.63316176" lon="111.18324601">
        <ele>2927.352</ele>
      </trkpt>
      <trkpt lat="-7.63307568" lon="111.18323503">
        <ele>2928.313</ele>
      </trkpt>
      <trkpt lat="-7.63307341" lon="111.18324199">
        <ele>2926.871</ele>
      </trkpt>
      <trkpt lat="-7.63310828" lon="111.18328096">
        <ele>2930.716</ele>
      </trkpt>
      <trkpt lat="-7.63329704" lon="111.18340803">
        <ele>2931.197</ele>
      </trkpt>
      <trkpt lat="-7.63331439" lon="111.18340703">
        <ele>2932.639</ele>
      </trkpt>
      <trkpt lat="-7.63332202" lon="111.18341097">
        <ele>2931.678</ele>
      </trkpt>
      <trkpt lat="-7.63343543" lon="111.18350099">
        <ele>2934.081</ele>
      </trkpt>
      <trkpt lat="-7.63350056" lon="111.18361498">
        <ele>2933.601</ele>
      </trkpt>
      <trkpt lat="-7.63364003" lon="111.18371397">
        <ele>2934.562</ele>
      </trkpt>
      <trkpt lat="-7.63375805" lon="111.18389301">
        <ele>2936.965</ele>
      </trkpt>
      <trkpt lat="-7.63382083" lon="111.18401899">
        <ele>2938.888</ele>
      </trkpt>
      <trkpt lat="-7.63382535" lon="111.18418696">
        <ele>2940.33</ele>
      </trkpt>
      <trkpt lat="-7.63389375" lon="111.18427497">
        <ele>2941.771</ele>
      </trkpt>
      <trkpt lat="-7.63392887" lon="111.18438">
        <ele>2942.733</ele>
      </trkpt>
      <trkpt lat="-7.63390825" lon="111.18451604">
        <ele>2943.213</ele>
      </trkpt>
      <trkpt lat="-7.63398897" lon="111.18455099">
        <ele>2943.694</ele>
      </trkpt>
      <trkpt lat="-7.63398754" lon="111.184552">
        <ele>2943.213</ele>
      </trkpt>
      <trkpt lat="-7.63398687" lon="111.184553">
        <ele>2939.849</ele>
      </trkpt>
      <trkpt lat="-7.63398536" lon="111.18455401">
        <ele>2940.33</ele>
      </trkpt>
      <trkpt lat="-7.63398143" lon="111.184553">
        <ele>2941.291</ele>
      </trkpt>
      <trkpt lat="-7.63400598" lon="111.18457303">
        <ele>2941.291</ele>
      </trkpt>
      <trkpt lat="-7.6339479" lon="111.18458502">
        <ele>2944.175</ele>
      </trkpt>
      <trkpt lat="-7.63393474" lon="111.184437">
        <ele>2946.098</ele>
      </trkpt>
      <trkpt lat="-7.63390901" lon="111.18439601">
        <ele>2947.059</ele>
      </trkpt>
      <trkpt lat="-7.63381312" lon="111.18433499">
        <ele>2947.059</ele>
      </trkpt>
      <trkpt lat="-7.63369535" lon="111.18428797">
        <ele>2949.462</ele>
      </trkpt>
      <trkpt lat="-7.63365646" lon="111.18414296">
        <ele>2950.423</ele>
      </trkpt>
      <trkpt lat="-7.63359041" lon="111.18403802">
        <ele>2951.385</ele>
      </trkpt>
      <trkpt lat="-7.63343501" lon="111.18389997">
        <ele>2953.307</ele>
      </trkpt>
      <trkpt lat="-7.63335706" lon="111.18386501">
        <ele>2954.269</ele>
      </trkpt>
      <trkpt lat="-7.63334524" lon="111.18385697">
        <ele>2952.827</ele>
      </trkpt>
      <trkpt lat="-7.63332755" lon="111.183848">
        <ele>2954.75</ele>
      </trkpt>
      <trkpt lat="-7.63332839" lon="111.18384699">
        <ele>2955.23</ele>
      </trkpt>
      <trkpt lat="-7.63329495" lon="111.18381799">
        <ele>2956.191</ele>
      </trkpt>
      <trkpt lat="-7.63315002" lon="111.18373099">
        <ele>2955.23</ele>
      </trkpt>
      <trkpt lat="-7.63312555" lon="111.18376401">
        <ele>2958.114</ele>
      </trkpt>
      <trkpt lat="-7.63312689" lon="111.18376804">
        <ele>2959.556</ele>
      </trkpt>
      <trkpt lat="-7.63319529" lon="111.18385898">
        <ele>2961.959</ele>
      </trkpt>
      <trkpt lat="-7.63331674" lon="111.18396501">
        <ele>2961.959</ele>
      </trkpt>
      <trkpt lat="-7.63333887" lon="111.18399401">
        <ele>2961.959</ele>
      </trkpt>
      <trkpt lat="-7.63336251" lon="111.18400097">
        <ele>2962.92</ele>
      </trkpt>
      <trkpt lat="-7.63345504" lon="111.18407498">
        <ele>2963.882</ele>
      </trkpt>
      <trkpt lat="-7.6334739" lon="111.184164">
        <ele>2965.805</ele>
      </trkpt>
      <trkpt lat="-7.6333967" lon="111.18408998">
        <ele>2967.728</ele>
      </trkpt>
      <trkpt lat="-7.63326687" lon="111.18403701">
        <ele>2969.169</ele>
      </trkpt>
      <trkpt lat="-7.63324432" lon="111.18402402">
        <ele>2970.131</ele>
      </trkpt>
      <trkpt lat="-7.63321758" lon="111.18403299">
        <ele>2970.611</ele>
      </trkpt>
      <trkpt lat="-7.63318875" lon="111.18403802">
        <ele>2972.053</ele>
      </trkpt>
      <trkpt lat="-7.6331719" lon="111.18408001">
        <ele>2974.937</ele>
      </trkpt>
      <trkpt lat="-7.6331605" lon="111.18408998">
        <ele>2976.86</ele>
      </trkpt>
      <trkpt lat="-7.63319076" lon="111.18410398">
        <ele>2978.302</ele>
      </trkpt>
      <trkpt lat="-7.63326234" lon="111.18415302">
        <ele>2977.821</ele>
      </trkpt>
      <trkpt lat="-7.63331322" lon="111.18419903">
        <ele>2979.263</ele>
      </trkpt>
      <trkpt lat="-7.63328514" lon="111.18419803">
        <ele>2981.666</ele>
      </trkpt>
      <trkpt lat="-7.63322814" lon="111.18414204">
        <ele>2982.147</ele>
      </trkpt>
      <trkpt lat="-7.63316067" lon="111.18415">
        <ele>2983.108</ele>
      </trkpt>
      <trkpt lat="-7.63314357" lon="111.18416299">
        <ele>2983.589</ele>
      </trkpt>
      <trkpt lat="-7.63312404" lon="111.18421697">
        <ele>2986.473</ele>
      </trkpt>
      <trkpt lat="-7.63312429" lon="111.18421798">
        <ele>2987.434</ele>
      </trkpt>
      <trkpt lat="-7.63311507" lon="111.18421898">
        <ele>2990.318</ele>
      </trkpt>
      <trkpt lat="-7.63311935" lon="111.18424203">
        <ele>2989.356</ele>
      </trkpt>
      <trkpt lat="-7.63306612" lon="111.18421496">
        <ele>2991.76</ele>
      </trkpt>
      <trkpt lat="-7.6330735" lon="111.18427397">
        <ele>2994.163</ele>
      </trkpt>
      <trkpt lat="-7.63307325" lon="111.18427799">
        <ele>2995.125</ele>
      </trkpt>
      <trkpt lat="-7.63308372" lon="111.18429601">
        <ele>2997.047</ele>
      </trkpt>
      <trkpt lat="-7.63308356" lon="111.18429702">
        <ele>3000.412</ele>
      </trkpt>
      <trkpt lat="-7.63308347" lon="111.18429802">
        <ele>3000.893</ele>
      </trkpt>
      <trkpt lat="-7.63306201" lon="111.18434203">
        <ele>3004.738</ele>
      </trkpt>
      <trkpt lat="-7.6330041" lon="111.18437899">
        <ele>3007.141</ele>
      </trkpt>
      <trkpt lat="-7.63294735" lon="111.18440297">
        <ele>3009.064</ele>
      </trkpt>
      <trkpt lat="-7.63294207" lon="111.18440397">
        <ele>3010.986</ele>
      </trkpt>
      <trkpt lat="-7.63294073" lon="111.18440397">
        <ele>3012.428</ele>
      </trkpt>
      <trkpt lat="-7.63287107" lon="111.18443096">
        <ele>3014.832</ele>
      </trkpt>
      <trkpt lat="-7.63286906" lon="111.18443901">
        <ele>3016.754</ele>
      </trkpt>
      <trkpt lat="-7.63285574" lon="111.184452">
        <ele>3017.716</ele>
      </trkpt>
      <trkpt lat="-7.63284115" lon="111.184466">
        <ele>3020.6</ele>
      </trkpt>
      <trkpt lat="-7.63276345" lon="111.18445401">
        <ele>3023.003</ele>
      </trkpt>
      <trkpt lat="-7.6327259" lon="111.18444898">
        <ele>3023.483</ele>
      </trkpt>
      <trkpt lat="-7.63270268" lon="111.18448896">
        <ele>3024.445</ele>
      </trkpt>
      <trkpt lat="-7.63270553" lon="111.18451101">
        <ele>3026.367</ele>
      </trkpt>
      <trkpt lat="-7.63272255" lon="111.18456197">
        <ele>3029.252</ele>
      </trkpt>
      <trkpt lat="-7.63274216" lon="111.18457404">
        <ele>3029.252</ele>
      </trkpt>
      <trkpt lat="-7.63274275" lon="111.18457404">
        <ele>3028.291</ele>
      </trkpt>
      <trkpt lat="-7.63274518" lon="111.18457404">
        <ele>3031.655</ele>
      </trkpt>
      <trkpt lat="-7.63274635" lon="111.18457597">
        <ele>3035.02</ele>
      </trkpt>
      <trkpt lat="-7.63274644" lon="111.18457898">
        <ele>3037.903</ele>
      </trkpt>
      <trkpt lat="-7.63276991" lon="111.18461897">
        <ele>3037.903</ele>
      </trkpt>
      <trkpt lat="-7.63279279" lon="111.18464503">
        <ele>3038.384</ele>
      </trkpt>
      <trkpt lat="-7.63279128" lon="111.18464403">
        <ele>3039.346</ele>
      </trkpt>
      <trkpt lat="-7.63273051" lon="111.18470999">
        <ele>3040.788</ele>
      </trkpt>
      <trkpt lat="-7.63276421" lon="111.18472198">
        <ele>3044.152</ele>
      </trkpt>
      <trkpt lat="-7.63277167" lon="111.184739">
        <ele>3047.036</ele>
      </trkpt>
      <trkpt lat="-7.63277334" lon="111.18477697">
        <ele>3049.92</ele>
      </trkpt>
      <trkpt lat="-7.63277443" lon="111.18480203">
        <ele>3050.4</ele>
      </trkpt>
      <trkpt lat="-7.63277812" lon="111.184812">
        <ele>3051.362</ele>
      </trkpt>
      <trkpt lat="-7.63274727" lon="111.184826">
        <ele>3052.804</ele>
      </trkpt>
      <trkpt lat="-7.63276144" lon="111.18484">
        <ele>3054.727</ele>
      </trkpt>
      <trkpt lat="-7.63276932" lon="111.18484">
        <ele>3056.168</ele>
      </trkpt>
      <trkpt lat="-7.63276831" lon="111.18483799">
        <ele>3055.207</ele>
      </trkpt>
      <trkpt lat="-7.63276647" lon="111.18483799">
        <ele>3056.649</ele>
      </trkpt>
      <trkpt lat="-7.63277024" lon="111.184883">
        <ele>3059.533</ele>
      </trkpt>
      <trkpt lat="-7.63278759" lon="111.18490001">
        <ele>3060.014</ele>
      </trkpt>
      <trkpt lat="-7.63280176" lon="111.18493698">
        <ele>3060.975</ele>
      </trkpt>
      <trkpt lat="-7.63280855" lon="111.18496497">
        <ele>3064.34</ele>
      </trkpt>
      <trkpt lat="-7.63280611" lon="111.18500001">
        <ele>3067.224</ele>
      </trkpt>
      <trkpt lat="-7.63280075" lon="111.18499699">
        <ele>3068.185</ele>
      </trkpt>
      <trkpt lat="-7.63280251" lon="111.18500504">
        <ele>3071.55</ele>
      </trkpt>
      <trkpt lat="-7.63280125" lon="111.18508198">
        <ele>3074.434</ele>
      </trkpt>
      <trkpt lat="-7.6327554" lon="111.18513999">
        <ele>3077.798</ele>
      </trkpt>
      <trkpt lat="-7.63275029" lon="111.18514904">
        <ele>3077.798</ele>
      </trkpt>
      <trkpt lat="-7.63273026" lon="111.18519899">
        <ele>3080.682</ele>
      </trkpt>
      <trkpt lat="-7.63272288" lon="111.185215">
        <ele>3082.124</ele>
      </trkpt>
      <trkpt lat="-7.63268743" lon="111.18526303">
        <ele>3085.008</ele>
      </trkpt>
      <trkpt lat="-7.6326456" lon="111.18531802">
        <ele>3088.373</ele>
      </trkpt>
      <trkpt lat="-7.63262255" lon="111.18533302">
        <ele>3091.737</ele>
      </trkpt>
      <trkpt lat="-7.63259162" lon="111.18543">
        <ele>3094.622</ele>
      </trkpt>
      <trkpt lat="-7.63259036" lon="111.18543897">
        <ele>3094.141</ele>
      </trkpt>
      <trkpt lat="-7.63254644" lon="111.185502">
        <ele>3097.505</ele>
      </trkpt>
      <trkpt lat="-7.63249045" lon="111.18557802">
        <ele>3100.389</ele>
      </trkpt>
      <trkpt lat="-7.6324638" lon="111.18564801">
        <ele>3102.792</ele>
      </trkpt>
      <trkpt lat="-7.63243941" lon="111.18568297">
        <ele>3105.676</ele>
      </trkpt>
      <trkpt lat="-7.63241577" lon="111.18575396">
        <ele>3107.599</ele>
      </trkpt>
      <trkpt lat="-7.63241158" lon="111.18582202">
        <ele>3110.963</ele>
      </trkpt>
      <trkpt lat="-7.63241569" lon="111.185833">
        <ele>3112.405</ele>
      </trkpt>
      <trkpt lat="-7.63239121" lon="111.185862">
        <ele>3115.77</ele>
      </trkpt>
      <trkpt lat="-7.63234092" lon="111.18590198">
        <ele>3118.654</ele>
      </trkpt>
      <trkpt lat="-7.63231602" lon="111.185919">
        <ele>3119.615</ele>
      </trkpt>
      <trkpt lat="-7.63231167" lon="111.185934">
        <ele>3122.499</ele>
      </trkpt>
      <trkpt lat="-7.6322711" lon="111.185976">
        <ele>3123.941</ele>
      </trkpt>
      <trkpt lat="-7.63224537" lon="111.18601204">
        <ele>3125.384</ele>
      </trkpt>
      <trkpt lat="-7.63220999" lon="111.18601397">
        <ele>3124.903</ele>
      </trkpt>
      <trkpt lat="-7.63220924" lon="111.18602403">
        <ele>3125.384</ele>
      </trkpt>
      <trkpt lat="-7.63220513" lon="111.18601698">
        <ele>3126.345</ele>
      </trkpt>
      <trkpt lat="-7.63218979" lon="111.18604196">
        <ele>3129.709</ele>
      </trkpt>
      <trkpt lat="-7.63214386" lon="111.18614003">
        <ele>3132.593</ele>
      </trkpt>
      <trkpt lat="-7.63210488" lon="111.18622301">
        <ele>3135.958</ele>
      </trkpt>
      <trkpt lat="-7.63204479" lon="111.18627297">
        <ele>3136.919</ele>
      </trkpt>
      <trkpt lat="-7.63203171" lon="111.18631898">
        <ele>3135.958</ele>
      </trkpt>
      <trkpt lat="-7.63199148" lon="111.18636299">
        <ele>3135.477</ele>
      </trkpt>
      <trkpt lat="-7.63196181" lon="111.18637204">
        <ele>3135.477</ele>
      </trkpt>
      <trkpt lat="-7.6319577" lon="111.18646399">
        <ele>3135.958</ele>
      </trkpt>
      <trkpt lat="-7.63193113" lon="111.18645804">
        <ele>3135.958</ele>
      </trkpt>
      <trkpt lat="-7.63192878" lon="111.18645997">
        <ele>3136.919</ele>
      </trkpt>
      <trkpt lat="-7.63193138" lon="111.18646198">
        <ele>3140.284</ele>
      </trkpt>
      <trkpt lat="-7.63193415" lon="111.18646097">
        <ele>3143.167</ele>
      </trkpt>
      <trkpt lat="-7.63193649" lon="111.18645997">
        <ele>3146.532</ele>
      </trkpt>
      <trkpt lat="-7.63187866" lon="111.18651696">
        <ele>3147.494</ele>
      </trkpt>
      <trkpt lat="-7.63169467" lon="111.18663599">
        <ele>3148.455</ele>
      </trkpt>
      <trkpt lat="-7.63156191" lon="111.18673498">
        <ele>3150.377</ele>
      </trkpt>
      <trkpt lat="-7.63154062" lon="111.18680597">
        <ele>3152.781</ele>
      </trkpt>
      <trkpt lat="-7.63152645" lon="111.18685802">
        <ele>3152.781</ele>
      </trkpt>
      <trkpt lat="-7.63148186" lon="111.18696003">
        <ele>3152.3</ele>
      </trkpt>
      <trkpt lat="-7.63142285" lon="111.187113">
        <ele>3150.377</ele>
      </trkpt>
      <trkpt lat="-7.63122621" lon="111.18726899">
        <ele>3151.339</ele>
      </trkpt>
      <trkpt lat="-7.63108531" lon="111.18741299">
        <ele>3152.3</ele>
      </trkpt>
      <trkpt lat="-7.63098079" lon="111.18749899">
        <ele>3154.223</ele>
      </trkpt>
      <trkpt lat="-7.63081877" lon="111.187616">
        <ele>3154.704</ele>
      </trkpt>
      <trkpt lat="-7.63067904" lon="111.18771901">
        <ele>3154.223</ele>
      </trkpt>
      <trkpt lat="-7.63049455" lon="111.18781004">
        <ele>3156.626</ele>
      </trkpt>
      <trkpt lat="-7.63036522" lon="111.187875">
        <ele>3157.588</ele>
      </trkpt>
      <trkpt lat="-7.63029917" lon="111.187947">
        <ele>3158.068</ele>
      </trkpt>
      <trkpt lat="-7.6302861" lon="111.18797902">
        <ele>3154.223</ele>
      </trkpt>
      <trkpt lat="-7.63024896" lon="111.18808002">
        <ele>3152.781</ele>
      </trkpt>
      <trkpt lat="-7.63015282" lon="111.18819703">
        <ele>3150.377</ele>
      </trkpt>
      <trkpt lat="-7.63007219" lon="111.18836199">
        <ele>3147.494</ele>
      </trkpt>
      <trkpt lat="-7.63007487" lon="111.18838797">
        <ele>3148.455</ele>
      </trkpt>
      <trkpt lat="-7.63007529" lon="111.18848403">
        <ele>3147.974</ele>
      </trkpt>
      <trkpt lat="-7.62998032" lon="111.18855402">
        <ele>3146.532</ele>
      </trkpt>
      <trkpt lat="-7.63002031" lon="111.18864597">
        <ele>3143.648</ele>
      </trkpt>
      <trkpt lat="-7.63001905" lon="111.18871001">
        <ele>3142.687</ele>
      </trkpt>
      <trkpt lat="-7.63002223" lon="111.18880204">
        <ele>3142.687</ele>
      </trkpt>
      <trkpt lat="-7.63001109" lon="111.188896">
        <ele>3140.284</ele>
      </trkpt>
      <trkpt lat="-7.62997789" lon="111.18894696">
        <ele>3137.4</ele>
      </trkpt>
      <trkpt lat="-7.6299245" lon="111.18901603">
        <ele>3133.555</ele>
      </trkpt>
      <trkpt lat="-7.62991939" lon="111.18902198">
        <ele>3134.997</ele>
      </trkpt>
      <trkpt lat="-7.62984395" lon="111.189169">
        <ele>3133.555</ele>
      </trkpt>
      <trkpt lat="-7.62979064" lon="111.18927302">
        <ele>3134.997</ele>
      </trkpt>
      <trkpt lat="-7.62970204" lon="111.18938701">
        <ele>3134.516</ele>
      </trkpt>
      <trkpt lat="-7.62965645" lon="111.18942498">
        <ele>3133.555</ele>
      </trkpt>
      <trkpt lat="-7.62956584" lon="111.18947896">
        <ele>3135.477</ele>
      </trkpt>
      <trkpt lat="-7.62946308" lon="111.18951903">
        <ele>3136.919</ele>
      </trkpt>
      <trkpt lat="-7.62945796" lon="111.18952397">
        <ele>3137.4</ele>
      </trkpt>
      <trkpt lat="-7.62934799" lon="111.18961601">
        <ele>3140.284</ele>
      </trkpt>
      <trkpt lat="-7.62920927" lon="111.18965297">
        <ele>3143.167</ele>
      </trkpt>
      <trkpt lat="-7.62917491" lon="111.18968298">
        <ele>3145.09</ele>
      </trkpt>
      <trkpt lat="-7.62910299" lon="111.18968599">
        <ele>3147.974</ele>
      </trkpt>
      <trkpt lat="-7.62899822" lon="111.18966303">
        <ele>3151.339</ele>
      </trkpt>
      <trkpt lat="-7.62888523" lon="111.18964098">
        <ele>3153.742</ele>
      </trkpt>
      <trkpt lat="-7.62886327" lon="111.18962397">
        <ele>3154.704</ele>
      </trkpt>
      <trkpt lat="-7.62881147" lon="111.18971701">
        <ele>3155.665</ele>
      </trkpt>
      <trkpt lat="-7.62876755" lon="111.18973997">
        <ele>3152.3</ele>
      </trkpt>
      <trkpt lat="-7.62860125" lon="111.18986897">
        <ele>3149.897</ele>
      </trkpt>
      <trkpt lat="-7.62852967" lon="111.18999101">
        <ele>3147.013</ele>
      </trkpt>
      <trkpt lat="-7.6284311" lon="111.190119">
        <ele>3147.974</ele>
      </trkpt>
      <trkpt lat="-7.62828492" lon="111.19019201">
        <ele>3148.455</ele>
      </trkpt>
      <trkpt lat="-7.62814527" lon="111.19028698">
        <ele>3149.416</ele>
      </trkpt>
      <trkpt lat="-7.62798744" lon="111.19038798">
        <ele>3150.858</ele>
      </trkpt>
      <trkpt lat="-7.62782165" lon="111.190536">
        <ele>3153.261</ele>
      </trkpt>
      <trkpt lat="-7.62772819" lon="111.19061303">
        <ele>3155.665</ele>
      </trkpt>
      <trkpt lat="-7.62765644" lon="111.19067296">
        <ele>3157.107</ele>
      </trkpt>
      <trkpt lat="-7.62760757" lon="111.19073298">
        <ele>3158.068</ele>
      </trkpt>
      <trkpt lat="-7.62755594" lon="111.19078897">
        <ele>3160.952</ele>
      </trkpt>
      <trkpt lat="-7.6274862" lon="111.19086298">
        <ele>3163.836</ele>
      </trkpt>
      <trkpt lat="-7.62740591" lon="111.19090104">
        <ele>3166.239</ele>
      </trkpt>
      <trkpt lat="-7.62733265" lon="111.19092098">
        <ele>3169.124</ele>
      </trkpt>
      <trkpt lat="-7.62723852" lon="111.19091202">
        <ele>3170.085</ele>
      </trkpt>
      <trkpt lat="-7.62720566" lon="111.19096801">
        <ele>3172.007</ele>
      </trkpt>
      <trkpt lat="-7.62712763" lon="111.19108804">
        <ele>3172.969</ele>
      </trkpt>
      <trkpt lat="-7.62702612" lon="111.19127001">
        <ele>3173.93</ele>
      </trkpt>
      <trkpt lat="-7.62693216" lon="111.191413">
        <ele>3175.853</ele>
      </trkpt>
      <trkpt lat="-7.62685413" lon="111.19151702">
        <ele>3179.217</ele>
      </trkpt>
      <trkpt lat="-7.62680576" lon="111.191599">
        <ele>3182.101</ele>
      </trkpt>
      <trkpt lat="-7.6267698" lon="111.19164904">
        <ele>3182.101</ele>
      </trkpt>
      <trkpt lat="-7.62675229" lon="111.19166999">
        <ele>3184.985</ele>
      </trkpt>
      <trkpt lat="-7.62675212" lon="111.191672">
        <ele>3188.35</ele>
      </trkpt>
      <trkpt lat="-7.6267263" lon="111.19186797">
        <ele>3191.234</ele>
      </trkpt>
      <trkpt lat="-7.62661608" lon="111.19201197">
        <ele>3193.637</ele>
      </trkpt>
      <trkpt lat="-7.62658222" lon="111.192074">
        <ele>3195.079</ele>
      </trkpt>
      <trkpt lat="-7.62651206" lon="111.19214298">
        <ele>3198.444</ele>
      </trkpt>
      <trkpt lat="-7.62643629" lon="111.19222797">
        <ele>3199.886</ele>
      </trkpt>
      <trkpt lat="-7.62644551" lon="111.19224298">
        <ele>3200.366</ele>
      </trkpt>
      <trkpt lat="-7.62649949" lon="111.19224499">
        <ele>3202.289</ele>
      </trkpt>
      <trkpt lat="-7.62652581" lon="111.19226804">
        <ele>3203.731</ele>
      </trkpt>
      <trkpt lat="-7.62657283" lon="111.192304">
        <ele>3204.211</ele>
      </trkpt>
      <trkpt lat="-7.62659202" lon="111.192305">
        <ele>3207.576</ele>
      </trkpt>
      <trkpt lat="-7.62661801" lon="111.19234197">
        <ele>3208.538</ele>
      </trkpt>
      <trkpt lat="-7.6266258" lon="111.19234004">
        <ele>3211.902</ele>
      </trkpt>
      <trkpt lat="-7.62673628" lon="111.19238304">
        <ele>3214.786</ele>
      </trkpt>
      <trkpt lat="-7.62680442" lon="111.19239796">
        <ele>3215.747</ele>
      </trkpt>
      <trkpt lat="-7.62687424" lon="111.19240098">
        <ele>3218.15</ele>
      </trkpt>
      <trkpt lat="-7.62694079" lon="111.19241497">
        <ele>3219.592</ele>
      </trkpt>
      <trkpt lat="-7.62697432" lon="111.192434">
        <ele>3220.554</ele>
      </trkpt>
      <trkpt lat="-7.62697893" lon="111.19245303">
        <ele>3222.958</ele>
      </trkpt>
      <trkpt lat="-7.62700994" lon="111.19248999">
        <ele>3224.88</ele>
      </trkpt>
      <trkpt lat="-7.62703459" lon="111.19250399">
        <ele>3227.283</ele>
      </trkpt>
      <trkpt lat="-7.62709561" lon="111.19255898">
        <ele>3228.725</ele>
      </trkpt>
      <trkpt lat="-7.62711137" lon="111.19257004">
        <ele>3232.09</ele>
      </trkpt>
      <trkpt lat="-7.62715722" lon="111.19258798">
        <ele>3232.09</ele>
      </trkpt>
      <trkpt lat="-7.62715629" lon="111.19258697">
        <ele>3233.051</ele>
      </trkpt>
      <trkpt lat="-7.62718052" lon="111.19262301">
        <ele>3234.012</ele>
      </trkpt>
      <trkpt lat="-7.62721002" lon="111.19265202">
        <ele>3236.896</ele>
      </trkpt>
      <trkpt lat="-7.62723433" lon="111.19269703">
        <ele>3238.819</ele>
      </trkpt>
      <trkpt lat="-7.62725755" lon="111.19273801">
        <ele>3240.742</ele>
      </trkpt>
      <trkpt lat="-7.62724154" lon="111.19277397">
        <ele>3241.703</ele>
      </trkpt>
      <trkpt lat="-7.62726006" lon="111.19288101">
        <ele>3245.067</ele>
      </trkpt>
      <trkpt lat="-7.6272614" lon="111.19291202">
        <ele>3246.99</ele>
      </trkpt>
      <trkpt lat="-7.62731354" lon="111.19298897">
        <ele>3248.432</ele>
      </trkpt>
      <trkpt lat="-7.6273277" lon="111.19302903">
        <ele>3250.354</ele>
      </trkpt>
      <trkpt lat="-7.6273422" lon="111.193109">
        <ele>3252.278</ele>
      </trkpt>
      <trkpt lat="-7.62734732" lon="111.19314998">
        <ele>3254.2</ele>
      </trkpt>
      <trkpt lat="-7.62735427" lon="111.19319701">
        <ele>3256.604</ele>
      </trkpt>
      <trkpt lat="-7.62735327" lon="111.19321796">
        <ele>3257.084</ele>
      </trkpt>
      <trkpt lat="-7.62735578" lon="111.19324202">
        <ele>3258.526</ele>
      </trkpt>
      <trkpt lat="-7.62736768" lon="111.19326901">
        <ele>3259.968</ele>
      </trkpt>
      <trkpt lat="-7.62737674" lon="111.19330002">
        <ele>3260.449</ele>
      </trkpt>
      <trkpt lat="-7.6273842" lon="111.19337403">
        <ele>3262.852</ele>
      </trkpt>
      <trkpt lat="-7.62740498" lon="111.19342399">
        <ele>3263.813</ele>
      </trkpt>
      <trkpt lat="-7.62738202" lon="111.19343497">
        <ele>3264.294</ele>
      </trkpt>
      <trkpt lat="-7.62740213" lon="111.193484">
        <ele>3265.255</ele>
      </trkpt>
      <trkpt lat="-7.62739518" lon="111.19347998">
        <ele>3264.774</ele>
      </trkpt>
      <trkpt lat="-7.62739602" lon="111.19347897">
        <ele>3264.294</ele>
      </trkpt>
      <trkpt lat="-7.62740146" lon="111.19347101">
        <ele>3265.736</ele>
      </trkpt>
      <trkpt lat="-7.6274018" lon="111.19346196">
        <ele>3266.216</ele>
      </trkpt>
      <trkpt lat="-7.62739895" lon="111.19347604">
        <ele>3265.736</ele>
      </trkpt>
      <trkpt lat="-7.62739602" lon="111.19347302">
        <ele>3266.216</ele>
      </trkpt>
      <trkpt lat="-7.62739593" lon="111.19347202">
        <ele>3264.294</ele>
      </trkpt>
      <trkpt lat="-7.6273961" lon="111.19347101">
        <ele>3268.139</ele>
      </trkpt>
      <trkpt lat="-7.62739291" lon="111.19347403">
        <ele>3266.216</ele>
      </trkpt>
      <trkpt lat="-7.62739216" lon="111.19347503">
        <ele>3266.697</ele>
      </trkpt>
      <trkpt lat="-7.62740172" lon="111.19349297">
        <ele>3267.659</ele>
      </trkpt>
      <trkpt lat="-7.6274013" lon="111.19349297">
        <ele>3267.178</ele>
      </trkpt>
      <trkpt lat="-7.62740037" lon="111.19350697">
        <ele>3268.139</ele>
      </trkpt>
      <trkpt lat="-7.62733977" lon="111.19368399">
        <ele>3268.62</ele>
      </trkpt>
      <trkpt lat="-7.62728504" lon="111.19385499">
        <ele>3270.062</ele>
      </trkpt>
      <trkpt lat="-7.62727414" lon="111.19395196">
        <ele>3269.581</ele>
      </trkpt>
      <trkpt lat="-7.62731513" lon="111.19406696">
        <ele>3271.023</ele>
      </trkpt>
      <trkpt lat="-7.62733902" lon="111.19420501">
        <ele>3273.426</ele>
      </trkpt>
      <trkpt lat="-7.62735017" lon="111.19428196">
        <ele>3276.31</ele>
      </trkpt>
      <trkpt lat="-7.6273438" lon="111.19435396">
        <ele>3277.271</ele>
      </trkpt>
      <trkpt lat="-7.627351" lon="111.19439101">
        <ele>3276.791</ele>
      </trkpt>
      <trkpt lat="-7.62734606" lon="111.19438598">
        <ele>3276.791</ele>
      </trkpt>
      <trkpt lat="-7.62734195" lon="111.19441397">
        <ele>3276.791</ele>
      </trkpt>
    </trkseg>
  </trk>
</gpx>
